{"type":"FeatureCollection","meta":{"id":"cinemas","generated":"2026-04-05","count":89,"source":"OpenStreetMap via Overpass API","vintage":"OSM snapshot at generation date"},"features":[{"type":"Feature","geometry":{"type":"Point","coordinates":[-0.09376,51.51978]},"properties":{"name":"Barbican Centre (Cinema)","address":"","postcode":"","website":""}},{"type":"Feature","geometry":{"type":"Point","coordinates":[-0.12908,51.51021]},"properties":{"name":"Odeon Mezzanine","address":"","postcode":"","website":""}},{"type":"Feature","geometry":{"type":"Point","coordinates":[-0.13041,51.51093]},"properties":{"name":"Cineworld Leicester Square","address":"Leicester Square 5-6","postcode":"WC2H 7NA","website":"https://www.cineworld.co.uk/cinemas/london-leicester-square/103"}},{"type":"Feature","geometry":{"type":"Point","coordinates":[-0.12937,51.51124]},"properties":{"name":"Vue Leicester Square","address":"Cranbourn Street 3","postcode":"WC2H 7AL","website":""}},{"type":"Feature","geometry":{"type":"Point","coordinates":[-0.13122,51.50957]},"properties":{"name":"Odeon Luxe Haymarket","address":"Panton Street 11-18","postcode":"SW1Y 4DP","website":"https://www.odeon.co.uk/cinemas/london-haymarket/"}},{"type":"Feature","geometry":{"type":"Point","coordinates":[-0.13061,51.51266]},"properties":{"name":"Curzon Soho","address":"Shaftesbury Avenue 99","postcode":"W1D 5DY","website":""}},{"type":"Feature","geometry":{"type":"Point","coordinates":[-0.12464,51.37804]},"properties":{"name":"Vue Purley Way","address":"Hesterman Way 21","postcode":"CR0 4YA","website":"https://www.myvue.com/cinema/croydon-purley-way/whats-on"}},{"type":"Feature","geometry":{"type":"Point","coordinates":[-0.20488,51.41981]},"properties":{"name":"Odeon Wimbledon","address":"The Broadway 39","postcode":"SW19 1QB","website":"https://www.odeon.co.uk/cinemas/wimbledon/"}},{"type":"Feature","geometry":{"type":"Point","coordinates":[-0.33246,51.58657]},"properties":{"name":"Metro Cinema","address":"","postcode":"","website":""}},{"type":"Feature","geometry":{"type":"Point","coordinates":[-0.33899,51.5815]},"properties":{"name":"Vue Cinema","address":"St Anns Road 27","postcode":"HA1 1HS","website":"https://www.myvue.com/cinema/harrow/whats-on"}},{"type":"Feature","geometry":{"type":"Point","coordinates":[-0.11496,51.46115]},"properties":{"name":"The Ritzy","address":"Brixton Oval 1","postcode":"SW2 1JG","website":""}},{"type":"Feature","geometry":{"type":"Point","coordinates":[-0.13815,51.4625]},"properties":{"name":"Clapham Picturehouse","address":"Venn Street 76","postcode":"SW4 0AT","website":"https://www.picturehouses.com/cinema/clapham-picturehouse"}},{"type":"Feature","geometry":{"type":"Point","coordinates":[-0.19531,51.36477]},"properties":{"name":"Omniplex Cinema Sutton","address":"St. Nicholas Way","postcode":"","website":"https://www.omniplexcinemas.co.uk/cinema/sutton/"}},{"type":"Feature","geometry":{"type":"Point","coordinates":[-0.16371,51.58851]},"properties":{"name":"Phoenix Cinema","address":"","postcode":"","website":""}},{"type":"Feature","geometry":{"type":"Point","coordinates":[-0.09901,51.37213]},"properties":{"name":"David Lean Cinema","address":"Katharine Street","postcode":"CR9 1ET","website":""}},{"type":"Feature","geometry":{"type":"Point","coordinates":[-0.10091,51.37291]},"properties":{"name":"Vue","address":"High Street 14","postcode":"CR0 1GT","website":"https://www.myvue.com/cinema/croydon-grants/whats-on"}},{"type":"Feature","geometry":{"type":"Point","coordinates":[-0.03162,51.40702]},"properties":{"name":"Odeon Cinema","address":"High Street","postcode":"BR3 1DY","website":""}},{"type":"Feature","geometry":{"type":"Point","coordinates":[-0.10583,51.53438]},"properties":{"name":"Vue Islington","address":"Parkfield Street 36","postcode":"N1 0PS","website":""}},{"type":"Feature","geometry":{"type":"Point","coordinates":[-0.0731,51.52435]},"properties":{"name":"Rich Mix Cinema","address":"Bethnal Green Road 35-47","postcode":"E1 6LA","website":"https://richmix.org.uk/"}},{"type":"Feature","geometry":{"type":"Point","coordinates":[-0.19341,51.45415]},"properties":{"name":"Cineworld","address":"Southside Shopping Centre","postcode":"SW18 4TF","website":"https://www.cineworld.co.uk/cinemas/london-wandsworth/066"}},{"type":"Feature","geometry":{"type":"Point","coordinates":[-0.21885,51.50341]},"properties":{"name":"Vue","address":"Shepherd's Bush Green","postcode":"W12 8PP","website":""}},{"type":"Feature","geometry":{"type":"Point","coordinates":[-0.17315,51.48559]},"properties":{"name":"Everyman Chelsea","address":"King's Road 279","postcode":"","website":""}},{"type":"Feature","geometry":{"type":"Point","coordinates":[-0.08079,51.49767]},"properties":{"name":"The Arzner","address":"Bermondsey Square 10","postcode":"SE1 3UN","website":"http://thearzner.com"}},{"type":"Feature","geometry":{"type":"Point","coordinates":[-0.10134,51.46505]},"properties":{"name":"Whirled Cinema","address":"Hardess Street 259","postcode":"SE24 0HN","website":"https://www.whirledcinema.com/"}},{"type":"Feature","geometry":{"type":"Point","coordinates":[-0.2993,51.41193]},"properties":{"name":"Odeon Kingston","address":"Clarence Street","postcode":"KT1 1QP","website":"https://www.odeon.co.uk/cinemas/kingston/"}},{"type":"Feature","geometry":{"type":"Point","coordinates":[-0.14376,51.53897]},"properties":{"name":"Odeon","address":"Parkway 14","postcode":"NW1 7AA","website":""}},{"type":"Feature","geometry":{"type":"Point","coordinates":[-0.29791,51.4858]},"properties":{"name":"Watermans Arts Centre","address":"","postcode":"","website":""}},{"type":"Feature","geometry":{"type":"Point","coordinates":[0.17902,51.57474]},"properties":{"name":"Vue","address":"Waterloo Rd 1-15","postcode":"RM1 1AU","website":""}},{"type":"Feature","geometry":{"type":"Point","coordinates":[-0.11173,51.52171]},"properties":{"name":"The Nickel Cinema","address":"Clerkenwell Road 117-119","postcode":"EC1R 5BY","website":"https://thenickel.co.uk/"}},{"type":"Feature","geometry":{"type":"Point","coordinates":[-0.03612,51.47419]},"properties":{"name":"Curzon Goldsmiths","address":"","postcode":"","website":"https://www.curzongoldsmiths.com/"}},{"type":"Feature","geometry":{"type":"Point","coordinates":[-0.18157,51.54812]},"properties":{"name":"Vue Finchley Road","address":"Finchley Road 255","postcode":"","website":"https://www.myvue.com/cinema/finchley-road/whats-on"}},{"type":"Feature","geometry":{"type":"Point","coordinates":[-0.14285,51.51682]},"properties":{"name":"Regent Street Cinema","address":"Regent Street 307","postcode":"","website":"https://www.regentstreetcinema.com/"}},{"type":"Feature","geometry":{"type":"Point","coordinates":[-0.178,51.50042]},"properties":{"name":"Imperial Cinema","address":"","postcode":"","website":""}},{"type":"Feature","geometry":{"type":"Point","coordinates":[-0.0225,51.50785]},"properties":{"name":"Cineworld","address":"Hertsmere Road 4","postcode":"E14 4AL","website":""}},{"type":"Feature","geometry":{"type":"Point","coordinates":[-0.09286,51.52102]},"properties":{"name":"Barbican Cinemas 2 & 3","address":"Silk Street","postcode":"EC2Y 8DS","website":"https://www.barbican.org.uk/film/new-cinemas"}},{"type":"Feature","geometry":{"type":"Point","coordinates":[-0.28393,51.5563]},"properties":{"name":"Cineworld Wembley","address":"Wembley Park Boulevard","postcode":"HA9 0TG","website":"https://www.cineworld.co.uk/cinemas/london-wembley/082"}},{"type":"Feature","geometry":{"type":"Point","coordinates":[-0.13658,51.49753]},"properties":{"name":"Curzon Victoria","address":"Victoria Street 58","postcode":"SW1E 6QW","website":"https://www.curzon.com/venues/victoria/"}},{"type":"Feature","geometry":{"type":"Point","coordinates":[0.1852,51.57949]},"properties":{"name":"Lumiere Cinema Romford","address":"Mercury Shopping Centre","postcode":"RM1 3EE","website":"https://www.lumiereromford.com/"}},{"type":"Feature","geometry":{"type":"Point","coordinates":[-0.13434,51.50894]},"properties":{"name":"Vue","address":"","postcode":"","website":""}},{"type":"Feature","geometry":{"type":"Point","coordinates":[-0.02019,51.58495]},"properties":{"name":"Forest Cinemas","address":"High Street 267","postcode":"E17 7FD","website":"https://forestcinema.co.uk"}},{"type":"Feature","geometry":{"type":"Point","coordinates":[-0.07392,51.52441]},"properties":{"name":"Electric Cinema","address":"Redchurch Street 64-66","postcode":"E2 7DP","website":"https://electriccinema.co.uk/"}},{"type":"Feature","geometry":{"type":"Point","coordinates":[-0.13372,51.51071]},"properties":{"name":"Picturehouse Central","address":"Great Windmill Street","postcode":"W1D 7DH","website":"https://www.picturehouses.com/cinema/Picturehouse_Central"}},{"type":"Feature","geometry":{"type":"Point","coordinates":[-0.072,51.52361]},"properties":{"name":"Close-Up Film Centre","address":"Sclater Street 97-99","postcode":"E1 6HR","website":"https://www.closeupfilmcentre.com/"}},{"type":"Feature","geometry":{"type":"Point","coordinates":[-0.307,51.45924]},"properties":{"name":"Curzon Richmond","address":"Water Lane","postcode":"TW9 1TJ","website":"https://www.curzon.com/venues/richmond/"}},{"type":"Feature","geometry":{"type":"Point","coordinates":[-0.20525,51.42036]},"properties":{"name":"Curzon Wimbledon","address":"The Broadway 23","postcode":"SW19 1RE","website":"https://www.curzon.com/venues/wimbledon/"}},{"type":"Feature","geometry":{"type":"Point","coordinates":[-0.06892,51.51382]},"properties":{"name":"Curzon Aldgate","address":"Canter Way 4","postcode":"E1 8PS","website":"https://www.curzoncinemas.com/aldgate/info"}},{"type":"Feature","geometry":{"type":"Point","coordinates":[-0.127,51.5377]},"properties":{"name":"Everyman On The Corner","address":"Handyside Street 1","postcode":"N1C 4BP","website":"https://www.everymancinema.com/kings-cross"}},{"type":"Feature","geometry":{"type":"Point","coordinates":[-0.17321,51.60386]},"properties":{"name":"Vue Cinema","address":"Chaplin Square","postcode":"N12 0GL","website":""}},{"type":"Feature","geometry":{"type":"Point","coordinates":[-0.0846,51.51965]},"properties":{"name":"Everyman","address":"Finsbury Avenue 1","postcode":"EC2M 2PA","website":""}},{"type":"Feature","geometry":{"type":"Point","coordinates":[-0.12406,51.53753]},"properties":{"name":"Everyman King's Cross","address":"Handyside Street 14-18","postcode":"N1C 4DN","website":"https://www.everymancinema.com/kings-cross"}},{"type":"Feature","geometry":{"type":"Point","coordinates":[-0.07913,51.41909]},"properties":{"name":"Everyman","address":"Church Road 25","postcode":"SE19 2TE","website":"https://www.everymancinema.com/venues-list/x11dr-everyman-crystal-palace/"}},{"type":"Feature","geometry":{"type":"Point","coordinates":[-0.15656,51.5205]},"properties":{"name":"Everyman","address":"Baker Street 96","postcode":"","website":"https://www.everymancinema.com/baker-street"}},{"type":"Feature","geometry":{"type":"Point","coordinates":[-0.14698,51.48251]},"properties":{"name":"The Cinema in the Arches","address":"Arches Lane 22","postcode":"SW11 8AB","website":""}},{"type":"Feature","geometry":{"type":"Point","coordinates":[-0.10296,51.43307]},"properties":{"name":"West Norwood Picturehouse","address":"","postcode":"","website":"https://www.picturehouses.com/cinema/west-norwood-picturehouse"}},{"type":"Feature","geometry":{"type":"Point","coordinates":[0.10138,51.37656]},"properties":{"name":"Odeon","address":"","postcode":"BR6 0TW","website":""}},{"type":"Feature","geometry":{"type":"Point","coordinates":[-0.16578,51.55081]},"properties":{"name":"Everyman","address":"Haverstock Hill 203","postcode":"NW3 4QG","website":"https://www.everymancinema.com/"}},{"type":"Feature","geometry":{"type":"Point","coordinates":[-0.01783,51.50613]},"properties":{"name":"Everyman","address":"Crossrail Place 1","postcode":"E14 5AR","website":""}},{"type":"Feature","geometry":{"type":"Point","coordinates":[-0.01994,51.43293]},"properties":{"name":"The Fellowship Cinema","address":"Randlesdown Road","postcode":"SE6 3BT","website":"https://fellowshipinn.co.uk/the-cinema/"}},{"type":"Feature","geometry":{"type":"Point","coordinates":[-0.17715,51.49453]},"properties":{"name":"Ciné Lumière","address":"Queensbury Place 17","postcode":"SW7 2DT","website":"https://www.institut-francais.org.uk/cine-lumiere/"}},{"type":"Feature","geometry":{"type":"Point","coordinates":[-0.06664,51.50831]},"properties":{"name":"London Dock - Residents Cinema","address":"Vaughan Way 150","postcode":"E1W 2AH","website":""}},{"type":"Feature","geometry":{"type":"Point","coordinates":[-0.22599,51.51043]},"properties":{"name":"Electric Cinema","address":"Wood Lane 101","postcode":"","website":"https://www.electriccinema.co.uk/cinemas/whitecity/"}},{"type":"Feature","geometry":{"type":"Point","coordinates":[-0.10357,51.53864]},"properties":{"name":"Odeon Luxe & Dine","address":"Esther Anne Place 13","postcode":"N1 1TU","website":"https://www.odeon.co.uk/cinemas/islington/"}},{"type":"Feature","geometry":{"type":"Point","coordinates":[-0.32805,51.4885]},"properties":{"name":"Sky Cinema","address":"","postcode":"","website":""}},{"type":"Feature","geometry":{"type":"Point","coordinates":[-0.36396,51.37074]},"properties":{"name":"Everyman","address":"High Street 20-22","postcode":"KT10 9RT","website":""}},{"type":"Feature","geometry":{"type":"Point","coordinates":[-0.0838,51.52888]},"properties":{"name":"Curzon Hoxton","address":"Pitfield Street 55","postcode":"","website":"https://www.curzon.com/venues/curzon-hoxton/"}},{"type":"Feature","geometry":{"type":"Point","coordinates":[-0.26841,51.5066]},"properties":{"name":"Act One Cinema","address":"High Street","postcode":"W3 6NA","website":"https://actonecinema.co.uk/"}},{"type":"Feature","geometry":{"type":"Point","coordinates":[0.00135,51.41857]},"properties":{"name":"Laser Quest & VR Centre Bromley","address":"Bromley Hill 94","postcode":"BR1 4JU","website":""}},{"type":"Feature","geometry":{"type":"Point","coordinates":[-0.13022,51.50991]},"properties":{"name":"Odeon Luxe West End","address":"Leicester Square 38","postcode":"WC2H 7DX","website":"https://www.odeon.co.uk/cinemas/london-west-end/"}},{"type":"Feature","geometry":{"type":"Point","coordinates":[-0.10747,51.56507]},"properties":{"name":"Finsbury Park Picturehouse","address":"City North Place 17","postcode":"N4 3FU","website":"https://www.picturehouses.com/cinema/finsbury-park"}},{"type":"Feature","geometry":{"type":"Point","coordinates":[0.05681,51.45061]},"properties":{"name":"Vue","address":"Eltham High Street 174","postcode":"SE9 1BJ","website":"https://www.myvue.com/cinema/eltham/whats-on"}},{"type":"Feature","geometry":{"type":"Point","coordinates":[-0.08104,51.52236]},"properties":{"name":"Rooftop Film Club","address":"","postcode":"","website":""}},{"type":"Feature","geometry":{"type":"Point","coordinates":[-0.00112,51.54167]},"properties":{"name":"Rooftop Film Club","address":"","postcode":"","website":""}},{"type":"Feature","geometry":{"type":"Point","coordinates":[-0.0922,51.50564]},"properties":{"name":"Everyman","address":"Dirty Lane 3","postcode":"SE1 9PA","website":"https://www.everymancinema.com/"}},{"type":"Feature","geometry":{"type":"Point","coordinates":[-0.19225,51.45919]},"properties":{"name":"Backyard Cinema","address":"","postcode":"","website":"https://www.backyardcinema.co.uk/"}},{"type":"Feature","geometry":{"type":"Point","coordinates":[-0.13111,51.50611]},"properties":{"name":"ICA Cinema","address":"","postcode":"","website":""}},{"type":"Feature","geometry":{"type":"Point","coordinates":[0.0739,51.55748]},"properties":{"name":"Cineworld","address":"","postcode":"","website":"https://www.cineworld.co.uk/cinemas/london-ilford/060"}},{"type":"Feature","geometry":{"type":"Point","coordinates":[-0.14347,51.54223]},"properties":{"name":"Curzon Camden","address":"Dockray Place","postcode":"NW1 8QD","website":""}},{"type":"Feature","geometry":{"type":"Point","coordinates":[-0.30688,51.51199]},"properties":{"name":"Ealing Picturehouse","address":"","postcode":"","website":"https://picturehouses.com"}},{"type":"Feature","geometry":{"type":"Point","coordinates":[-0.17775,51.49721]},"properties":{"name":"The Ronson Theatre","address":"Exhibition Road;South Kensington","postcode":"SW7 2DD","website":"https://www.sciencemuseum.org.uk/imax-cinema"}},{"type":"Feature","geometry":{"type":"Point","coordinates":[-0.25101,51.49309]},"properties":{"name":"The Chiswick Cinema","address":"Chiswick High Road 94-96","postcode":"","website":"https://www.chiswickcinema.co.uk"}},{"type":"Feature","geometry":{"type":"Point","coordinates":[-0.36268,51.46959]},"properties":{"name":"Cineworld","address":"Unity Square","postcode":"TW3 1EL","website":"https://www.cineworld.co.uk/cinemas/london-hounslow/118"}},{"type":"Feature","geometry":{"type":"Point","coordinates":[-0.01054,51.54244]},"properties":{"name":"Everyman","address":"Redman Place 4","postcode":"E20 1JQ","website":""}},{"type":"Feature","geometry":{"type":"Point","coordinates":[-0.12005,51.58189]},"properties":{"name":"ArtHouse Crouch End","address":"Tottenham Lane 159A","postcode":"N8 9BT","website":"https://www.arthousecrouchend.co.uk/"}},{"type":"Feature","geometry":{"type":"Point","coordinates":[-0.12082,51.58164]},"properties":{"name":"Crouch End Picturehouse","address":"","postcode":"","website":""}},{"type":"Feature","geometry":{"type":"Point","coordinates":[-0.41655,51.38386]},"properties":{"name":"Everyman Cinema","address":"High Street 85-89","postcode":"KT12 1DN","website":""}},{"type":"Feature","geometry":{"type":"Point","coordinates":[-0.0832,51.5263]},"properties":{"name":"Film House","address":"","postcode":"","website":"https://artotel.com/en/hotels/london/hoxton/event/artotel-film-house"}},{"type":"Feature","geometry":{"type":"Point","coordinates":[-0.30784,51.48279]},"properties":{"name":"Everyman","address":"","postcode":"","website":""}},{"type":"Feature","geometry":{"type":"Point","coordinates":[-0.19442,51.4808]},"properties":{"name":"Vue","address":"Fulham Road","postcode":"SW6 1BW","website":"https://www.myvue.com/cinema/fulham-broadway/whats-on"}},{"type":"Feature","geometry":{"type":"Point","coordinates":[-0.30494,51.41104]},"properties":{"name":"Curzon","address":"","postcode":"","website":""}}]}