{"type":"FeatureCollection","meta":{"id":"coworking","generated":"2026-04-06","count":92,"source":"OpenStreetMap via Overpass API","vintage":"OSM snapshot at generation date"},"features":[{"type":"Feature","geometry":{"type":"Point","coordinates":[-0.09092,51.52823]},"properties":{"name":"Old Street Works","address":"City Road 197-205","postcode":"EC1V 1JN","operator":""}},{"type":"Feature","geometry":{"type":"Point","coordinates":[-0.07944,51.52039]},"properties":{"name":"WeWork","address":"Primrose Street 1","postcode":"EC2A 2EX","operator":""}},{"type":"Feature","geometry":{"type":"Point","coordinates":[-0.17574,51.61352]},"properties":{"name":"SSV Suites","address":"High Road 708A","postcode":"","operator":""}},{"type":"Feature","geometry":{"type":"Point","coordinates":[-0.10526,51.52268]},"properties":{"name":"wallacespace","address":"Clerkenwell Green 18","postcode":"EC1R 0DP","operator":""}},{"type":"Feature","geometry":{"type":"Point","coordinates":[-0.08203,51.51629]},"properties":{"name":"Hubworking","address":"","postcode":"","operator":""}},{"type":"Feature","geometry":{"type":"Point","coordinates":[-0.09027,51.51799]},"properties":{"name":"WeWork","address":"Fore Street Avenue 1","postcode":"EC2Y 9DT","operator":""}},{"type":"Feature","geometry":{"type":"Point","coordinates":[-0.10737,51.50814]},"properties":{"name":"WeWork","address":"Upper Ground 22","postcode":"SE1 9PD","operator":""}},{"type":"Feature","geometry":{"type":"Point","coordinates":[-0.05247,51.56532]},"properties":{"name":"R-A-R-A","address":"Grosvenor Way 2","postcode":"E5 9ND","operator":""}},{"type":"Feature","geometry":{"type":"Point","coordinates":[-0.12597,51.51767]},"properties":{"name":"Rentadesk","address":"Little Russell Street 35","postcode":"WC1A 2HH","operator":""}},{"type":"Feature","geometry":{"type":"Point","coordinates":[-0.13438,51.5153]},"properties":{"name":"WeWork","address":"Great Chapel Street 16","postcode":"W1F 8FL","operator":""}},{"type":"Feature","geometry":{"type":"Point","coordinates":[-0.14258,51.49527]},"properties":{"name":"Spaces","address":"Wilton Road","postcode":"","operator":""}},{"type":"Feature","geometry":{"type":"Point","coordinates":[-0.09677,51.52666]},"properties":{"name":"Fora","address":"Central Street 71","postcode":"EC1V 8AB","operator":""}},{"type":"Feature","geometry":{"type":"Point","coordinates":[-0.11568,51.49887]},"properties":{"name":"Health Foundry","address":"Royal Street 1","postcode":"SE1 7LL","operator":""}},{"type":"Feature","geometry":{"type":"Point","coordinates":[-0.11009,51.51863]},"properties":{"name":"WeWork","address":"Waterhouse Square 138 -140","postcode":"EC1N 2SW","operator":""}},{"type":"Feature","geometry":{"type":"Point","coordinates":[-0.0902,51.52802]},"properties":{"name":"Coffice","address":"City Road 163","postcode":"EC1V 1NR","operator":""}},{"type":"Feature","geometry":{"type":"Point","coordinates":[-0.10434,51.50111]},"properties":{"name":"Foundry Cafe","address":"Blackfriars Road 160","postcode":"","operator":""}},{"type":"Feature","geometry":{"type":"Point","coordinates":[-0.08347,51.51471]},"properties":{"name":"WeWork","address":"","postcode":"","operator":""}},{"type":"Feature","geometry":{"type":"Point","coordinates":[-0.09332,51.50152]},"properties":{"name":"Fora","address":"Borough High Street 189","postcode":"SE1 1LB","operator":""}},{"type":"Feature","geometry":{"type":"Point","coordinates":[-0.15468,51.46566]},"properties":{"name":"Idea Space","address":"","postcode":"","operator":""}},{"type":"Feature","geometry":{"type":"Point","coordinates":[-0.08362,51.52011]},"properties":{"name":"Central Working","address":"","postcode":"","operator":""}},{"type":"Feature","geometry":{"type":"Point","coordinates":[-0.19239,51.50164]},"properties":{"name":"Kensington Pavilion","address":"Kensington High Street 96","postcode":"","operator":""}},{"type":"Feature","geometry":{"type":"Point","coordinates":[-0.08137,51.51039]},"properties":{"name":"Spaces","address":"","postcode":"","operator":""}},{"type":"Feature","geometry":{"type":"Point","coordinates":[-0.07815,51.5165]},"properties":{"name":"WeWork","address":"Devonshire Square 10","postcode":"EC2M 4YP","operator":""}},{"type":"Feature","geometry":{"type":"Point","coordinates":[-0.13938,51.52448]},"properties":{"name":"Spaces","address":"Euston Road 307","postcode":"","operator":""}},{"type":"Feature","geometry":{"type":"Point","coordinates":[-0.01494,51.50382]},"properties":{"name":"WeWork","address":"Churchill Place 30","postcode":"E14 5EU","operator":""}},{"type":"Feature","geometry":{"type":"Point","coordinates":[-0.07827,51.51359]},"properties":{"name":"WeWork","address":"","postcode":"","operator":""}},{"type":"Feature","geometry":{"type":"Point","coordinates":[-0.00958,51.54211]},"properties":{"name":"Workable","address":"Westfield Avenue 1","postcode":"E20 1HZ","operator":""}},{"type":"Feature","geometry":{"type":"Point","coordinates":[-0.07821,51.51861]},"properties":{"name":"Wallacespace","address":"Artillery Lane 15-25","postcode":"E1 7LP","operator":""}},{"type":"Feature","geometry":{"type":"Point","coordinates":[-0.30817,51.39471]},"properties":{"name":"Maple Works Surbiton","address":"Maple Road 73","postcode":"KT6 4AG","operator":""}},{"type":"Feature","geometry":{"type":"Point","coordinates":[-0.04263,51.54736]},"properties":{"name":"Greenhouse E9","address":"Mackintosh Lane 8","postcode":"E9 6AB","operator":""}},{"type":"Feature","geometry":{"type":"Point","coordinates":[0.00802,51.53557]},"properties":{"name":"Maybank Offices","address":"New Plaistow Road 1","postcode":"E15 3JB","operator":""}},{"type":"Feature","geometry":{"type":"Point","coordinates":[0.01958,51.53114]},"properties":{"name":"The Factory London","address":"High Street 5-7","postcode":"E13 0AD","operator":""}},{"type":"Feature","geometry":{"type":"Point","coordinates":[-0.10778,51.56366]},"properties":{"name":"Indycube Finsbury Park","address":"Fonthill Road 149","postcode":"N4 3HF","operator":"Indycube"}},{"type":"Feature","geometry":{"type":"Point","coordinates":[-0.14362,51.52006]},"properties":{"name":"Spaces","address":"New Cavendish Street 77","postcode":"W1W 6XB","operator":""}},{"type":"Feature","geometry":{"type":"Point","coordinates":[-0.02117,51.54443]},"properties":{"name":"Hackney Bridge Co-Work","address":"","postcode":"","operator":""}},{"type":"Feature","geometry":{"type":"Point","coordinates":[-0.07856,51.53686]},"properties":{"name":"The Halley","address":"","postcode":"","operator":""}},{"type":"Feature","geometry":{"type":"Point","coordinates":[-0.07855,51.53631]},"properties":{"name":"Storey","address":"Orsman Road 6","postcode":"","operator":""}},{"type":"Feature","geometry":{"type":"Point","coordinates":[-0.09387,51.47582]},"properties":{"name":"ARC Club","address":"Camberwell Road 272-274","postcode":"SE5 0DL","operator":""}},{"type":"Feature","geometry":{"type":"Point","coordinates":[-0.1357,51.52172]},"properties":{"name":"Regus","address":"Tottenham Court Road 85","postcode":"","operator":""}},{"type":"Feature","geometry":{"type":"Point","coordinates":[-0.11917,51.51753]},"properties":{"name":"The Space Holborn","address":"High Holborn 235","postcode":"WC1V 7DN","operator":""}},{"type":"Feature","geometry":{"type":"Point","coordinates":[0.01972,51.55468]},"properties":{"name":"Forest Gate Works","address":"Winchelsea Road Arch 362","postcode":"E7 0AQ","operator":""}},{"type":"Feature","geometry":{"type":"Point","coordinates":[-0.04151,51.59081]},"properties":{"name":"Big Penny Workspaces","address":"","postcode":"","operator":""}},{"type":"Feature","geometry":{"type":"Point","coordinates":[-0.02289,51.54096]},"properties":{"name":"The Trampery","address":"","postcode":"","operator":""}},{"type":"Feature","geometry":{"type":"Point","coordinates":[-0.11029,51.52358]},"properties":{"name":"Tentacle Zone","address":"Bakers Yard 1","postcode":"","operator":""}},{"type":"Feature","geometry":{"type":"Point","coordinates":[-0.06829,51.59894]},"properties":{"name":"The Trampery Tottenham","address":"High Road 639","postcode":"N17 8AA","operator":"The Trampery"}},{"type":"Feature","geometry":{"type":"Point","coordinates":[-0.04071,51.58961]},"properties":{"name":"Yonder Workspace","address":"Hookers Road 4-6","postcode":"E17 6DP","operator":""}},{"type":"Feature","geometry":{"type":"Point","coordinates":[-0.10485,51.50597]},"properties":{"name":"Working From Southwark","address":"","postcode":"","operator":""}},{"type":"Feature","geometry":{"type":"Point","coordinates":[-0.30819,51.48333]},"properties":{"name":"Digital Dock","address":"","postcode":"","operator":""}},{"type":"Feature","geometry":{"type":"Point","coordinates":[-0.0233,51.54409]},"properties":{"name":"Mainyard Studios","address":"Wallis Road 80","postcode":"E9 5LN","operator":""}},{"type":"Feature","geometry":{"type":"Point","coordinates":[-0.00861,51.57134]},"properties":{"name":"Mainyard Studios","address":"High Road Leyton 679","postcode":"E10 6RA","operator":""}},{"type":"Feature","geometry":{"type":"Point","coordinates":[-0.32658,51.4476]},"properties":{"name":"Patch Twickenham","address":"York Street 42","postcode":"TW1 3BW","operator":""}},{"type":"Feature","geometry":{"type":"Point","coordinates":[-0.00876,51.53251]},"properties":{"name":"Divisible","address":"","postcode":"","operator":""}},{"type":"Feature","geometry":{"type":"Point","coordinates":[-0.11421,51.47385]},"properties":{"name":"Unit Z","address":"Alphabet Mews 23","postcode":"SW9 0FN","operator":""}},{"type":"Feature","geometry":{"type":"Point","coordinates":[-0.14812,51.4938]},"properties":{"name":"25 EP","address":"Eccleston Place 25","postcode":"","operator":""}},{"type":"Feature","geometry":{"type":"Point","coordinates":[-0.12437,51.50501]},"properties":{"name":"PUBLIC Hall by Huckletree","address":"Horse Guards Avenue 1","postcode":"SW1A 2HU","operator":""}},{"type":"Feature","geometry":{"type":"Point","coordinates":[0.01064,51.54118]},"properties":{"name":"Work Hub","address":"","postcode":"","operator":""}},{"type":"Feature","geometry":{"type":"Point","coordinates":[-0.01081,51.55719]},"properties":{"name":"Mainyard Studios","address":"Ruckholt Road 80","postcode":"","operator":""}},{"type":"Feature","geometry":{"type":"Point","coordinates":[-0.01089,51.55722]},"properties":{"name":"Property With Simon","address":"Ruckholt Road 80","postcode":"E10 5FA","operator":""}},{"type":"Feature","geometry":{"type":"Point","coordinates":[-0.09911,51.49213]},"properties":{"name":"Hotel Elephant","address":"","postcode":"","operator":""}},{"type":"Feature","geometry":{"type":"Point","coordinates":[-0.1364,51.51517]},"properties":{"name":"Work.Life","address":"Noel Street 9","postcode":"W1F 8GQ","operator":""}},{"type":"Feature","geometry":{"type":"Point","coordinates":[-0.08108,51.50204]},"properties":{"name":"Runway East","address":"Crucifix Lane 18","postcode":"","operator":""}},{"type":"Feature","geometry":{"type":"Point","coordinates":[-0.1959,51.47964]},"properties":{"name":"Homework Workspace","address":"Effie Road 25","postcode":"SW6 1EL","operator":""}},{"type":"Feature","geometry":{"type":"Point","coordinates":[-0.0724,51.56552]},"properties":{"name":"Another Place","address":"","postcode":"","operator":""}},{"type":"Feature","geometry":{"type":"Point","coordinates":[0.00778,51.4673]},"properties":{"name":"The Workers' League","address":"Royal Parade Mews 44-50","postcode":"SE3 0TN","operator":""}},{"type":"Feature","geometry":{"type":"Point","coordinates":[-0.18985,51.43964]},"properties":{"name":"ARC Club","address":"Trewint Street 21","postcode":"","operator":""}},{"type":"Feature","geometry":{"type":"Point","coordinates":[-0.00914,51.5321]},"properties":{"name":"Stratford Sustainability Hub","address":"Sugar House Lane 1","postcode":"","operator":""}},{"type":"Feature","geometry":{"type":"Point","coordinates":[-0.09458,51.53185]},"properties":{"name":"Moneypenny Workhub","address":"Wenlock Road 20","postcode":"N1 7GU","operator":""}},{"type":"Feature","geometry":{"type":"Point","coordinates":[-0.06905,51.51491]},"properties":{"name":"Techspace","address":"Commercial Road 38-40","postcode":"E1 1LN","operator":""}},{"type":"Feature","geometry":{"type":"Point","coordinates":[-0.00345,51.58524]},"properties":{"name":"Wood Street Studios","address":"Barrett Road","postcode":"","operator":""}},{"type":"Feature","geometry":{"type":"Point","coordinates":[-0.31057,51.51204]},"properties":{"name":"Spaces","address":"Uxbridge Road 71-75","postcode":"","operator":""}},{"type":"Feature","geometry":{"type":"Point","coordinates":[-0.07545,51.53012]},"properties":{"name":"Shoreditch Exchange","address":"Gorsuch Place","postcode":"E2 8JF","operator":""}},{"type":"Feature","geometry":{"type":"Point","coordinates":[-0.17319,51.51882]},"properties":{"name":"WeWork","address":"","postcode":"","operator":""}},{"type":"Feature","geometry":{"type":"Point","coordinates":[0.00041,51.53986]},"properties":{"name":"SBN","address":"High Street 415","postcode":"E15 4QZ","operator":""}},{"type":"Feature","geometry":{"type":"Point","coordinates":[-0.22046,51.53403]},"properties":{"name":"The Bureau","address":"Station Terrace 7","postcode":"","operator":""}},{"type":"Feature","geometry":{"type":"Point","coordinates":[-0.11805,51.51026]},"properties":{"name":"Makerversity","address":"Victoria Embankment","postcode":"WC2R 1LA","operator":""}},{"type":"Feature","geometry":{"type":"Point","coordinates":[-0.00558,51.53563]},"properties":{"name":"ARC Club","address":"High Street 180","postcode":"E15 2LS","operator":""}},{"type":"Feature","geometry":{"type":"Point","coordinates":[-0.19094,51.54859]},"properties":{"name":"apex coworking","address":"","postcode":"","operator":""}},{"type":"Feature","geometry":{"type":"Point","coordinates":[-0.0091,51.5321]},"properties":{"name":"Divisible Space","address":"Sugar House Lane 1","postcode":"E15 2QS","operator":""}},{"type":"Feature","geometry":{"type":"Point","coordinates":[-0.09837,51.49899]},"properties":{"name":"The Ministry","address":"Borough Road 79-81","postcode":"SE1 1DN","operator":""}},{"type":"Feature","geometry":{"type":"Point","coordinates":[-0.11866,51.50168]},"properties":{"name":"Sustainable Ventures","address":"Belvedere Road","postcode":"SE1 7PB","operator":""}},{"type":"Feature","geometry":{"type":"Point","coordinates":[-0.05788,51.53893]},"properties":{"name":"Laundry Studios","address":"Warburton Road 2","postcode":"E8 3RT","operator":""}},{"type":"Feature","geometry":{"type":"Point","coordinates":[-0.11489,51.51249]},"properties":{"name":"Soho Works 180 Strand","address":"Strand 180","postcode":"WC2R 1EA","operator":""}},{"type":"Feature","geometry":{"type":"Point","coordinates":[-0.0749,51.51829]},"properties":{"name":"Lenta Serviced Offices","address":"White's Row 10","postcode":"E1 7NF","operator":""}},{"type":"Feature","geometry":{"type":"Point","coordinates":[-0.08113,51.50053]},"properties":{"name":"Work.Life","address":"Tanner Street 5-7","postcode":"SE1 3LE","operator":""}},{"type":"Feature","geometry":{"type":"Point","coordinates":[-0.09257,51.50235]},"properties":{"name":"Work.Life","address":"Borough High Street 140","postcode":"SE1 1LB","operator":""}},{"type":"Feature","geometry":{"type":"Point","coordinates":[-0.15653,51.52132]},"properties":{"name":"Deskin","address":"David Mews 13","postcode":"W1U 6EQ","operator":""}},{"type":"Feature","geometry":{"type":"Point","coordinates":[0.00918,51.46604]},"properties":{"name":"Nicholas James Serviced Work Space","address":"Tranquil Vale 18","postcode":"SE3 0AX","operator":""}},{"type":"Feature","geometry":{"type":"Point","coordinates":[-0.01621,51.56014]},"properties":{"name":"Artworks East","address":"Osier Way 32-34","postcode":"","operator":""}},{"type":"Feature","geometry":{"type":"Point","coordinates":[-0.11551,51.50375]},"properties":{"name":"WeWork","address":"York Road 10","postcode":"SE1 7ND","operator":""}},{"type":"Feature","geometry":{"type":"Point","coordinates":[-0.0838,51.52508]},"properties":{"name":"The Hoxton Mix","address":"Paul Street 66-68","postcode":"EC2A 4NA","operator":""}},{"type":"Feature","geometry":{"type":"Point","coordinates":[-0.06068,51.59015]},"properties":{"name":"ARC Tottenham","address":"Watermead Way 3","postcode":"N17 9QZ","operator":""}},{"type":"Feature","geometry":{"type":"Point","coordinates":[-0.10348,51.43416]},"properties":{"name":"Badger Badger","address":"Norwood Road 543","postcode":"SE27 9DL","operator":""}}]}