{"type":"FeatureCollection","meta":{"id":"libraries","generated":"2026-04-06","count":185,"source":"OpenStreetMap via Overpass API","vintage":"OSM snapshot at generation date"},"features":[{"type":"Feature","geometry":{"type":"Point","coordinates":[-0.11561,51.52108]},"properties":{"name":"Holborn Library","address":"","postcode":"","website":""}},{"type":"Feature","geometry":{"type":"Point","coordinates":[-0.02122,51.44616]},"properties":{"name":"Catford Library","address":"Winslade Way 23-24","postcode":"SE6 4JU","website":"https://www.lewisham.gov.uk/myservices/libraries/branches/Pages/Catford-Library.aspx"}},{"type":"Feature","geometry":{"type":"Point","coordinates":[-0.35637,51.56256]},"properties":{"name":"Roxeth Library","address":"Northolt Road","postcode":"HA2 8EQ","website":""}},{"type":"Feature","geometry":{"type":"Point","coordinates":[-0.21664,51.36014]},"properties":{"name":"Cheam Library","address":"","postcode":"SM3 8QH","website":""}},{"type":"Feature","geometry":{"type":"Point","coordinates":[-0.3349,51.59422]},"properties":{"name":"Wealdstone Library","address":"","postcode":"","website":""}},{"type":"Feature","geometry":{"type":"Point","coordinates":[-0.22436,51.50587]},"properties":{"name":"Shepherd's Bush Library","address":"Wood Lane 6","postcode":"","website":"https://www.lbhf.gov.uk/libraries/find-your-library/shepherds-bush-library"}},{"type":"Feature","geometry":{"type":"Point","coordinates":[-0.13324,51.35338]},"properties":{"name":"The Library @ The Phoenix Centre","address":"Mollison Drive","postcode":"SM6 9NZ","website":"https://arena.yourlondonlibrary.net/web/sutton/phoenix-library"}},{"type":"Feature","geometry":{"type":"Point","coordinates":[-0.02105,51.58438]},"properties":{"name":"Walthamstow Central Library","address":"","postcode":"","website":""}},{"type":"Feature","geometry":{"type":"Point","coordinates":[-0.00709,51.39971]},"properties":{"name":"Shortlands Library","address":"Shortlands Road 110","postcode":"BR2 0JP","website":""}},{"type":"Feature","geometry":{"type":"Point","coordinates":[-0.31155,51.61844]},"properties":{"name":"Stanmore public library","address":"","postcode":"","website":""}},{"type":"Feature","geometry":{"type":"Point","coordinates":[-0.32459,51.50936]},"properties":{"name":"West Ealing Community Library","address":"Melbourne Avenue","postcode":"W13 9BA","website":"https://wecl.org.uk/"}},{"type":"Feature","geometry":{"type":"Point","coordinates":[-0.08009,51.28314]},"properties":{"name":"Caterham Valley Library","address":"Stafford Road","postcode":"CR3 6JG","website":""}},{"type":"Feature","geometry":{"type":"Point","coordinates":[-0.08009,51.53018]},"properties":{"name":"Shoreditch Library","address":"Hoxton Street 80","postcode":"N1 6LP","website":"https://www.hackney.gov.uk/shoreditch-library"}},{"type":"Feature","geometry":{"type":"Point","coordinates":[-0.3955,51.36906]},"properties":{"name":"Hersham Library","address":"","postcode":"","website":""}},{"type":"Feature","geometry":{"type":"Point","coordinates":[-0.26627,51.33435]},"properties":{"name":"Epsom Library","address":"Epsom Square 6","postcode":"KT19 8AG","website":"https://www.surreycc.gov.uk/libraries/your-library/find-your-nearest/epsom"}},{"type":"Feature","geometry":{"type":"Point","coordinates":[-0.18958,51.51846]},"properties":{"name":"Paddington Children’s Library","address":"","postcode":"","website":""}},{"type":"Feature","geometry":{"type":"Point","coordinates":[-0.0745,51.44883]},"properties":{"name":"Dulwich Library","address":"Lordship Lane 368","postcode":"SE22 8NB","website":"https://www.southwark.gov.uk/culture-and-sport/libraries/find-library/dulwich-library"}},{"type":"Feature","geometry":{"type":"Point","coordinates":[-0.03323,51.69987]},"properties":{"name":"Cheshunt Library","address":"Turners Hill","postcode":"EN8 8LB","website":"https://www.hertfordshire.gov.uk/services/libraries-and-archives/library-opening-hours/cheshunt-library.aspx"}},{"type":"Feature","geometry":{"type":"Point","coordinates":[-0.24777,51.36348]},"properties":{"name":"Stoneleigh Library","address":"","postcode":"","website":""}},{"type":"Feature","geometry":{"type":"Point","coordinates":[-0.21996,51.38815]},"properties":{"name":"Aragon Public Library","address":"","postcode":"","website":""}},{"type":"Feature","geometry":{"type":"Point","coordinates":[-0.26109,51.49176]},"properties":{"name":"Chiswick Area Library","address":"","postcode":"","website":""}},{"type":"Feature","geometry":{"type":"Point","coordinates":[-0.32865,51.2934]},"properties":{"name":"Leatherhead Library","address":"Church Street","postcode":"","website":""}},{"type":"Feature","geometry":{"type":"Point","coordinates":[-0.11161,51.44462]},"properties":{"name":"St Martins Library Centre","address":"","postcode":"","website":""}},{"type":"Feature","geometry":{"type":"Point","coordinates":[-0.13789,51.48798]},"properties":{"name":"Pimlico Library","address":"","postcode":"","website":""}},{"type":"Feature","geometry":{"type":"Point","coordinates":[-0.17465,51.38559]},"properties":{"name":"Middleton Circle Library","address":"","postcode":"SM5 1JJ","website":""}},{"type":"Feature","geometry":{"type":"Point","coordinates":[0.00639,51.55812]},"properties":{"name":"Harrow Green Community Library","address":"Cathall Road 2-4","postcode":"E11 4LF","website":"https://harrowgreenlibrary.com/"}},{"type":"Feature","geometry":{"type":"Point","coordinates":[-0.30247,51.51232]},"properties":{"name":"Ealing Central Library","address":"","postcode":"","website":""}},{"type":"Feature","geometry":{"type":"Point","coordinates":[-0.17243,51.53365]},"properties":{"name":"St. John's Wood Library","address":"Circus Road 20-24","postcode":"","website":""}},{"type":"Feature","geometry":{"type":"Point","coordinates":[-0.1883,51.49004]},"properties":{"name":"Brompton Library","address":"Old Brompton Road 208","postcode":"","website":""}},{"type":"Feature","geometry":{"type":"Point","coordinates":[-0.02975,51.53275]},"properties":{"name":"Idea Store, Bow","address":"","postcode":"","website":"https://www.ideastore.co.uk/idea-store-bow"}},{"type":"Feature","geometry":{"type":"Point","coordinates":[-0.38945,51.62584]},"properties":{"name":"Library","address":"","postcode":"","website":""}},{"type":"Feature","geometry":{"type":"Point","coordinates":[-0.29754,51.42635]},"properties":{"name":"Tudor Library","address":"","postcode":"","website":""}},{"type":"Feature","geometry":{"type":"Point","coordinates":[-0.06651,51.64532]},"properties":{"name":"Bush Hill Park Library","address":"Agricola Place","postcode":"EN1 1DW","website":""}},{"type":"Feature","geometry":{"type":"Point","coordinates":[-0.12829,51.63037]},"properties":{"name":"Southgate Public Library","address":"High Street","postcode":"N14 6BP","website":"https://libraries.enfield.gov.uk/"}},{"type":"Feature","geometry":{"type":"Point","coordinates":[-0.08613,51.6517]},"properties":{"name":"Enfield Library","address":"Church Street 66","postcode":"EN2 6AX","website":"https://mylife.enfield.gov.uk/directory/providerdetails/210976"}},{"type":"Feature","geometry":{"type":"Point","coordinates":[-0.42825,51.57802]},"properties":{"name":"Manor Farm Library","address":"","postcode":"","website":""}},{"type":"Feature","geometry":{"type":"Point","coordinates":[-0.10648,51.51547]},"properties":{"name":"Shoe Lane Library","address":"Little New Street","postcode":"EC4A 3JR","website":""}},{"type":"Feature","geometry":{"type":"Point","coordinates":[0.01465,51.40361]},"properties":{"name":"Bromley Central Library","address":"High Street","postcode":"BR1 1EX","website":"https://www.better.org.uk/library/london/bromley/bromley-central-library"}},{"type":"Feature","geometry":{"type":"Point","coordinates":[0.21949,51.2889]},"properties":{"name":"Seal Library","address":"","postcode":"","website":""}},{"type":"Feature","geometry":{"type":"Point","coordinates":[0.10326,51.40457]},"properties":{"name":"St Paul's Cray Library","address":"Mickleham Road","postcode":"BR5 2RW","website":"https://www.better.org.uk/library/london/bromley/st-paul-s-cray-library-community-support-centre"}},{"type":"Feature","geometry":{"type":"Point","coordinates":[-0.11895,51.53714]},"properties":{"name":"Lewis Carroll Children's Library","address":"Copenhagen Street","postcode":"N1 0ST","website":""}},{"type":"Feature","geometry":{"type":"Point","coordinates":[-0.08197,51.63612]},"properties":{"name":"Ridge Avenue Library","address":"","postcode":"","website":""}},{"type":"Feature","geometry":{"type":"Point","coordinates":[-0.05568,51.54462]},"properties":{"name":"Hackney Central Library","address":"","postcode":"","website":"https://hackney.gov.uk/hackney-central-library"}},{"type":"Feature","geometry":{"type":"Point","coordinates":[-0.01336,51.3402]},"properties":{"name":"New Addington Library","address":"Central Parade 61","postcode":"CR0 0JD","website":""}},{"type":"Feature","geometry":{"type":"Point","coordinates":[-0.26091,51.36167]},"properties":{"name":"Ewell Court House","address":"","postcode":"","website":""}},{"type":"Feature","geometry":{"type":"Point","coordinates":[-0.1052,51.47138]},"properties":{"name":"Lambeth Archives & Minet Library","address":"","postcode":"","website":""}},{"type":"Feature","geometry":{"type":"Point","coordinates":[-0.4041,51.52084]},"properties":{"name":"Yeading Library","address":"","postcode":"","website":""}},{"type":"Feature","geometry":{"type":"Point","coordinates":[-0.03637,51.45542]},"properties":{"name":"Crofton Park Library","address":"Brockley Road 375","postcode":"SE4 2AG","website":"https://www.lewisham.gov.uk/myservices/libraries/branches/Pages/Crofton-Park-community-library-service.aspx"}},{"type":"Feature","geometry":{"type":"Point","coordinates":[-0.14795,51.49279]},"properties":{"name":"Victoria Library","address":"Buckingham Palace Road 160","postcode":"SW1W 9UD","website":"https://www.westminster.gov.uk/leisure-libraries-and-community/library-opening-times-and-contact-details/victoria-library"}},{"type":"Feature","geometry":{"type":"Point","coordinates":[-0.30022,51.40935]},"properties":{"name":"Kingston Library","address":"","postcode":"","website":""}},{"type":"Feature","geometry":{"type":"Point","coordinates":[-0.12987,51.50964]},"properties":{"name":"Westminster Reference Library","address":"","postcode":"","website":""}},{"type":"Feature","geometry":{"type":"Point","coordinates":[-0.12393,51.30757]},"properties":{"name":"Bradmore Green Library","address":"Bradmore Way","postcode":"CR5 1PE","website":""}},{"type":"Feature","geometry":{"type":"Point","coordinates":[-0.11485,51.46095]},"properties":{"name":"Brixton Library","address":"Brixton Oval","postcode":"SW2 1JQ","website":"https://www.lambeth.gov.uk/libraries-0/brixton-tate-library"}},{"type":"Feature","geometry":{"type":"Point","coordinates":[-0.20269,51.47716]},"properties":{"name":"Fulham Library","address":"Fulham Road 598","postcode":"SW6 5NX","website":"https://www.lbhf.gov.uk/Directory/Leisure_and_Culture/Libraries/Fulham_library"}},{"type":"Feature","geometry":{"type":"Point","coordinates":[-0.20431,51.48428]},"properties":{"name":"Library","address":"","postcode":"","website":""}},{"type":"Feature","geometry":{"type":"Point","coordinates":[-0.22888,51.58858]},"properties":{"name":"Hendon Library","address":"","postcode":"","website":""}},{"type":"Feature","geometry":{"type":"Point","coordinates":[-0.04065,51.42692]},"properties":{"name":"Sydenham Library","address":"","postcode":"","website":""}},{"type":"Feature","geometry":{"type":"Point","coordinates":[-0.14788,51.49289]},"properties":{"name":"Victoria Music Library","address":"Buckingham Palace Road 160","postcode":"SW1W 9UD","website":""}},{"type":"Feature","geometry":{"type":"Point","coordinates":[-0.2515,51.55983]},"properties":{"name":"Neasden Library Plus","address":"","postcode":"","website":""}},{"type":"Feature","geometry":{"type":"Point","coordinates":[-0.30606,51.36809]},"properties":{"name":"Hook and Chessington Library","address":"Hook Road","postcode":"KT9 1EJ","website":""}},{"type":"Feature","geometry":{"type":"Point","coordinates":[0.10451,51.528]},"properties":{"name":"Thames View Library","address":"","postcode":"","website":""}},{"type":"Feature","geometry":{"type":"Point","coordinates":[0.0364,51.62619]},"properties":{"name":"Buckhurst Hill Library","address":"Queens Road","postcode":"","website":""}},{"type":"Feature","geometry":{"type":"Point","coordinates":[-0.05846,51.62395]},"properties":{"name":"Edmonton Green Library","address":"South Mall 36-44","postcode":"","website":"https://mylife.enfield.gov.uk/directory/providerdetails/216435"}},{"type":"Feature","geometry":{"type":"Point","coordinates":[-0.16851,51.48735]},"properties":{"name":"Chelsea Library","address":"","postcode":"","website":""}},{"type":"Feature","geometry":{"type":"Point","coordinates":[-0.38062,51.59132]},"properties":{"name":"Pinner Library","address":"","postcode":"","website":""}},{"type":"Feature","geometry":{"type":"Point","coordinates":[-0.12924,51.6489]},"properties":{"name":"Oakwood Library","address":"Bramley Road 185-187","postcode":"N14 4XA","website":""}},{"type":"Feature","geometry":{"type":"Point","coordinates":[-0.40046,51.58043]},"properties":{"name":"Eastcote Library","address":"Field End Road 88","postcode":"HA5 1RL","website":"https://www.hillingdon.gov.uk/article/2881/Eastcote-Library"}},{"type":"Feature","geometry":{"type":"Point","coordinates":[-0.07305,51.47795]},"properties":{"name":"The Feminist Library","address":"","postcode":"","website":"https://feministlibrary.co.uk/"}},{"type":"Feature","geometry":{"type":"Point","coordinates":[-0.07393,51.58801]},"properties":{"name":"Marcus Garvey Library","address":"","postcode":"","website":"https://www.haringey.gov.uk/libraries-sport-and-leisure/libraries/marcus-garvey-library"}},{"type":"Feature","geometry":{"type":"Point","coordinates":[-0.06831,51.60356]},"properties":{"name":"Coombes Croft Library","address":"","postcode":"","website":"https://www.haringey.gov.uk/index/community_and_leisure/libraries/findalibrary/coombescroft.htm"}},{"type":"Feature","geometry":{"type":"Point","coordinates":[0.30053,51.39897]},"properties":{"name":"Longfield Library","address":"","postcode":"","website":""}},{"type":"Feature","geometry":{"type":"Point","coordinates":[0.02575,51.54691]},"properties":{"name":"The Gate Forest Gate Community Neighbourhood","address":"","postcode":"","website":""}},{"type":"Feature","geometry":{"type":"Point","coordinates":[-0.10451,51.52624]},"properties":{"name":"Islington Local History Centre","address":"","postcode":"","website":"https://www.islington.gov.uk/islington/history-heritage/heritage_lhc/Pages/default.aspx"}},{"type":"Feature","geometry":{"type":"Point","coordinates":[-0.22026,51.49097]},"properties":{"name":"Hammersmith and Fulham Archives and Local History Centre","address":"","postcode":"","website":"https://www.lbhf.gov.uk/Directory/Leisure_and_Culture/Libraries/Archives/17430_Archives_and_Local_History.asp"}},{"type":"Feature","geometry":{"type":"Point","coordinates":[-0.21295,51.49614]},"properties":{"name":"Blythe House Archive and Library Reading Room","address":"","postcode":"","website":""}},{"type":"Feature","geometry":{"type":"Point","coordinates":[-0.16269,51.40863]},"properties":{"name":"Mitcham Library","address":"","postcode":"","website":""}},{"type":"Feature","geometry":{"type":"Point","coordinates":[-0.0386,51.47548]},"properties":{"name":"New Cross Learning Centre","address":"New Cross Road 283;285","postcode":"SE14 6AS","website":""}},{"type":"Feature","geometry":{"type":"Point","coordinates":[-0.0356,51.47496]},"properties":{"name":"Rutherford Building(Library and IT Services)","address":"","postcode":"","website":""}},{"type":"Feature","geometry":{"type":"Point","coordinates":[-0.05605,51.43576]},"properties":{"name":"Forest Hill Library","address":"","postcode":"","website":""}},{"type":"Feature","geometry":{"type":"Point","coordinates":[0.05739,51.45126]},"properties":{"name":"Eltham Library","address":"Archery Road","postcode":"SE9 1HA","website":"https://www.better.org.uk/library/london/greenwich/eltham-library"}},{"type":"Feature","geometry":{"type":"Point","coordinates":[-0.03069,51.48997]},"properties":{"name":"Pepys Resource Centre","address":"","postcode":"","website":""}},{"type":"Feature","geometry":{"type":"Point","coordinates":[-0.36297,51.40214]},"properties":{"name":"Molesey Library","address":"","postcode":"","website":""}},{"type":"Feature","geometry":{"type":"Point","coordinates":[-0.07941,51.52647]},"properties":{"name":"Stuart Hall Library","address":"","postcode":"","website":"http://www.rivingtonplace.org/Stuart-Hall-Library"}},{"type":"Feature","geometry":{"type":"Point","coordinates":[-0.07383,51.57235]},"properties":{"name":"Lubavitch Lending Library","address":"","postcode":"","website":""}},{"type":"Feature","geometry":{"type":"Point","coordinates":[-0.01469,51.50453]},"properties":{"name":"Idea Store","address":"Churchill Place 2","postcode":"E14 5RB","website":""}},{"type":"Feature","geometry":{"type":"Point","coordinates":[0.28952,51.45034]},"properties":{"name":"Library","address":"","postcode":"","website":""}},{"type":"Feature","geometry":{"type":"Point","coordinates":[0.06183,51.50731]},"properties":{"name":"Library","address":"","postcode":"","website":""}},{"type":"Feature","geometry":{"type":"Point","coordinates":[-0.09417,51.51993]},"properties":{"name":"Barbican Library","address":"","postcode":"","website":""}},{"type":"Feature","geometry":{"type":"Point","coordinates":[-0.47516,51.33935]},"properties":{"name":"Byfleet Community Library","address":"","postcode":"","website":""}},{"type":"Feature","geometry":{"type":"Point","coordinates":[-0.49086,51.37093]},"properties":{"name":"Addlestone Library","address":"Station Road","postcode":"KT15 2AF","website":""}},{"type":"Feature","geometry":{"type":"Point","coordinates":[0.11026,51.49369]},"properties":{"name":"Abbey Wood Library","address":"","postcode":"","website":""}},{"type":"Feature","geometry":{"type":"Point","coordinates":[-0.06257,51.34254]},"properties":{"name":"Selsdon Library","address":"","postcode":"","website":""}},{"type":"Feature","geometry":{"type":"Point","coordinates":[0.31745,51.69248]},"properties":{"name":"Library","address":"","postcode":"","website":""}},{"type":"Feature","geometry":{"type":"Point","coordinates":[-0.36756,51.54899]},"properties":{"name":"Northolt Leisure Centre Library","address":"","postcode":"","website":""}},{"type":"Feature","geometry":{"type":"Point","coordinates":[-0.3241,51.54058]},"properties":{"name":"Perivale Library","address":"Horsenden Lane South","postcode":"UB6 7NT","website":""}},{"type":"Feature","geometry":{"type":"Point","coordinates":[-0.35509,51.52982]},"properties":{"name":"Greenford Library","address":"","postcode":"","website":""}},{"type":"Feature","geometry":{"type":"Point","coordinates":[-0.09173,51.50173]},"properties":{"name":"Local History Library","address":"","postcode":"","website":"https://www.southwark.gov.uk/info/200161/local_history_library"}},{"type":"Feature","geometry":{"type":"Point","coordinates":[-0.30663,51.45889]},"properties":{"name":"Richmond Reference Library","address":"","postcode":"","website":""}},{"type":"Feature","geometry":{"type":"Point","coordinates":[-0.13469,51.49443]},"properties":{"name":"RHS Lindley Library","address":"","postcode":"","website":""}},{"type":"Feature","geometry":{"type":"Point","coordinates":[-0.3823,51.50269]},"properties":{"name":"Southall Library","address":"","postcode":"","website":""}},{"type":"Feature","geometry":{"type":"Point","coordinates":[0.07536,51.55806]},"properties":{"name":"Redbridge Central Library","address":"Clements Road","postcode":"IG1 1EA","website":""}},{"type":"Feature","geometry":{"type":"Point","coordinates":[-0.19606,51.40151]},"properties":{"name":"Morden Library","address":"","postcode":"","website":""}},{"type":"Feature","geometry":{"type":"Point","coordinates":[-0.13774,51.53435]},"properties":{"name":"Camden Town Library","address":"Eversholt Street 218","postcode":"NW1 1BD","website":"https://www.camden.gov.uk/camdentownlibrary"}},{"type":"Feature","geometry":{"type":"Point","coordinates":[-0.06518,51.61224]},"properties":{"name":"Fore Street Library","address":"Fore Street 109-111","postcode":"","website":""}},{"type":"Feature","geometry":{"type":"Point","coordinates":[0.00421,51.54271]},"properties":{"name":"Stratford Library","address":"","postcode":"","website":""}},{"type":"Feature","geometry":{"type":"Point","coordinates":[-0.41819,51.5084]},"properties":{"name":"Botwell Green Library","address":"","postcode":"","website":""}},{"type":"Feature","geometry":{"type":"Point","coordinates":[-0.4362,51.52585]},"properties":{"name":"Hayes End Library","address":"","postcode":"","website":"https://www.hillingdon.gov.uk/article/8711/Hayes-End-Library"}},{"type":"Feature","geometry":{"type":"Point","coordinates":[-0.0926,51.51618]},"properties":{"name":"Guildhall Library","address":"Aldermanbury","postcode":"EC2V 7HH","website":"https://www.cityoflondon.gov.uk/things-to-do/visiting-the-city/archives-and-city-history/guildhall-library/Pages/default.aspx"}},{"type":"Feature","geometry":{"type":"Point","coordinates":[-0.13397,51.52598]},"properties":{"name":"The Wellcome Library","address":"","postcode":"","website":""}},{"type":"Feature","geometry":{"type":"Point","coordinates":[-0.4768,51.4526]},"properties":{"name":"Stanwell Library","address":"","postcode":"","website":""}},{"type":"Feature","geometry":{"type":"Point","coordinates":[-0.12909,51.43158]},"properties":{"name":"Streatham Tate Library","address":"Streatham High Road 63","postcode":"SW16 1PN","website":""}},{"type":"Feature","geometry":{"type":"Point","coordinates":[-0.33605,51.50988]},"properties":{"name":"Hanwell Library","address":"Cherington Road","postcode":"","website":""}},{"type":"Feature","geometry":{"type":"Point","coordinates":[-0.1052,51.51345]},"properties":{"name":"St Bride Library","address":"Bride Lane","postcode":"EC4Y 8EQ","website":"https://www.stbride.org/"}},{"type":"Feature","geometry":{"type":"Point","coordinates":[-0.12666,51.53386]},"properties":{"name":"Pancras Square Library","address":"Pancras Square 5","postcode":"","website":""}},{"type":"Feature","geometry":{"type":"Point","coordinates":[-0.2811,51.55884]},"properties":{"name":"Wembley Library","address":"Engineers Way","postcode":"HA9 0FJ","website":""}},{"type":"Feature","geometry":{"type":"Point","coordinates":[0.17269,51.39732]},"properties":{"name":"Swanley Library","address":"London Road","postcode":"","website":""}},{"type":"Feature","geometry":{"type":"Point","coordinates":[-0.03943,51.67196]},"properties":{"name":"Ordnance Unity Centre Library","address":"","postcode":"","website":"https://mylife.enfield.gov.uk/directory/providerdetails/210991"}},{"type":"Feature","geometry":{"type":"Point","coordinates":[-0.00842,51.48026]},"properties":{"name":"Stockwell Street Library","address":"Stockwell Street 10","postcode":"SE10 9BD","website":"https://www.gre.ac.uk/it-and-library/library"}},{"type":"Feature","geometry":{"type":"Point","coordinates":[0.07944,51.53597]},"properties":{"name":"Barking Learning Centre","address":"","postcode":"","website":""}},{"type":"Feature","geometry":{"type":"Point","coordinates":[-0.13298,51.46299]},"properties":{"name":"Clapham Library","address":"Clapham High Street 91","postcode":"SW4 7DB","website":"https://www.lambeth.gov.uk/libraries-0/clapham-library"}},{"type":"Feature","geometry":{"type":"Point","coordinates":[-0.05346,51.5015]},"properties":{"name":"The Rotherhithe Picture Research Library","address":"St Marychurch Street 82","postcode":"SE16 4HZ","website":"https://www.sandsfilms.co.uk/"}},{"type":"Feature","geometry":{"type":"Point","coordinates":[-0.24215,51.44978]},"properties":{"name":"Roehampton Library","address":"Danebury Avenue","postcode":"SW15 4HD","website":""}},{"type":"Feature","geometry":{"type":"Point","coordinates":[-0.36747,51.46849]},"properties":{"name":"Hounslow Library","address":"Bath Road","postcode":"TW3 3EB","website":"https://www.hounslowlibraries.org"}},{"type":"Feature","geometry":{"type":"Point","coordinates":[0.04729,51.55082]},"properties":{"name":"Manor Park Library","address":"","postcode":"","website":""}},{"type":"Feature","geometry":{"type":"Point","coordinates":[-0.07913,51.28204]},"properties":{"name":"Caterham Library","address":"","postcode":"","website":""}},{"type":"Feature","geometry":{"type":"Point","coordinates":[-0.27646,51.58598]},"properties":{"name":"Kingsbury Library Plus","address":"","postcode":"","website":""}},{"type":"Feature","geometry":{"type":"Point","coordinates":[-0.1951,51.59996]},"properties":{"name":"Church End Library","address":"","postcode":"","website":""}},{"type":"Feature","geometry":{"type":"Point","coordinates":[-0.41005,51.32886]},"properties":{"name":"Cobham Library","address":"Cedar Road","postcode":"KT11 2AE","website":""}},{"type":"Feature","geometry":{"type":"Point","coordinates":[0.0113,51.51682]},"properties":{"name":"Custom House and Canning Town Community Neighbourhood Centre and Library","address":"Rathbone Market 18","postcode":"E16 1EH","website":""}},{"type":"Feature","geometry":{"type":"Point","coordinates":[0.05693,51.3665]},"properties":{"name":"Education Centre Library","address":"","postcode":"","website":""}},{"type":"Feature","geometry":{"type":"Point","coordinates":[-0.17849,51.50011]},"properties":{"name":"ICSF Library","address":"","postcode":"","website":""}},{"type":"Feature","geometry":{"type":"Point","coordinates":[-0.1773,51.41882]},"properties":{"name":"Colliers Wood Library","address":"High Street Colliers Wood 105-109","postcode":"SW19 2HR","website":"https://arena.yourlondonlibrary.net/web/merton/colliers-wood-library"}},{"type":"Feature","geometry":{"type":"Point","coordinates":[-0.0642,51.38294]},"properties":{"name":"Ashburton Library","address":"Shirley Road","postcode":"CR9 7AL","website":""}},{"type":"Feature","geometry":{"type":"Point","coordinates":[-0.04512,51.37526]},"properties":{"name":"Shirley Library","address":"Wickham Road","postcode":"CR0 8BH","website":"https://www.croydon.gov.uk/leisure/libraries/find-your-library/shirley-library"}},{"type":"Feature","geometry":{"type":"Point","coordinates":[-0.08023,51.46123]},"properties":{"name":"Grove Vale Library","address":"","postcode":"","website":""}},{"type":"Feature","geometry":{"type":"Point","coordinates":[-0.15072,51.51885]},"properties":{"name":"Marylebone Library","address":"New Cavendish Street 9-11","postcode":"W1G 9UQ","website":""}},{"type":"Feature","geometry":{"type":"Point","coordinates":[0.06588,51.48954]},"properties":{"name":"The Woolwich Centre","address":"","postcode":"","website":""}},{"type":"Feature","geometry":{"type":"Point","coordinates":[-0.14529,51.52584]},"properties":{"name":"Royal College of Physicians Library","address":"","postcode":"","website":""}},{"type":"Feature","geometry":{"type":"Point","coordinates":[-0.15156,51.52374]},"properties":{"name":"Royal Academy of Music Library","address":"","postcode":"","website":""}},{"type":"Feature","geometry":{"type":"Point","coordinates":[-0.10312,51.43323]},"properties":{"name":"West Norwood Library","address":"","postcode":"","website":""}},{"type":"Feature","geometry":{"type":"Point","coordinates":[-0.41118,51.44637]},"properties":{"name":"Feltham Library","address":"","postcode":"","website":""}},{"type":"Feature","geometry":{"type":"Point","coordinates":[-0.18789,51.51494]},"properties":{"name":"Paddington Children's Library","address":"Queensway 150","postcode":"","website":""}},{"type":"Feature","geometry":{"type":"Point","coordinates":[-0.18868,51.51752]},"properties":{"name":"Paddington Library","address":"Porchester Road","postcode":"","website":"https://www.westminster.gov.uk/library-opening-hours-and-contact-details#paddington-library"}},{"type":"Feature","geometry":{"type":"Point","coordinates":[-0.19743,51.51135]},"properties":{"name":"Notting Hill Gate Library","address":"Pembridge Square 1","postcode":"","website":"https://www.rbkc.gov.uk/libraries/your-library/find-library/notting-hill-gate-library"}},{"type":"Feature","geometry":{"type":"Point","coordinates":[-0.20681,51.52387]},"properties":{"name":"Kensal Library","address":"Golborne Road 20","postcode":"","website":"https://www.rbkc.gov.uk/libraries/your-library/find-library/kensal-library"}},{"type":"Feature","geometry":{"type":"Point","coordinates":[0.18355,51.58077]},"properties":{"name":"Library","address":"","postcode":"","website":""}},{"type":"Feature","geometry":{"type":"Point","coordinates":[-0.13341,51.52478]},"properties":{"name":"Main Library","address":"","postcode":"","website":""}},{"type":"Feature","geometry":{"type":"Point","coordinates":[-0.1773,51.49454]},"properties":{"name":"La Médiathèque","address":"Queensberry Place 17","postcode":"","website":""}},{"type":"Feature","geometry":{"type":"Point","coordinates":[-0.04684,51.65884]},"properties":{"name":"Enfield Highway Library","address":"Hertford Road 201","postcode":"EN3 5JH","website":"https://mylife.enfield.gov.uk/directory/providerdetails/210974"}},{"type":"Feature","geometry":{"type":"Point","coordinates":[-0.12508,51.55267]},"properties":{"name":"Cat and Mouse Library","address":"","postcode":"","website":"https://www.islington.gov.uk/libraries-arts-and-heritage/libraries/your-local-libraries/cat-and-mouse-library"}},{"type":"Feature","geometry":{"type":"Point","coordinates":[0.05562,51.51493]},"properties":{"name":"Beckton Globe Library","address":"Kingsford Way 1","postcode":"E6 5JQ","website":""}},{"type":"Feature","geometry":{"type":"Point","coordinates":[0.06276,51.50107]},"properties":{"name":"North Woolwich Library","address":"Pier Road 5","postcode":"","website":""}},{"type":"Feature","geometry":{"type":"Point","coordinates":[-0.24327,51.50358]},"properties":{"name":"Askew Road Library","address":"Askew Road 87/91","postcode":"","website":"https://www.lbhf.gov.uk/libraries/find-your-library/askew-road-library"}},{"type":"Feature","geometry":{"type":"Point","coordinates":[-0.3607,51.58535]},"properties":{"name":"North Harrow Community Library","address":"Pinner Road 429-433","postcode":"HA1 4HN","website":"https://northharrowlibrary.org/"}},{"type":"Feature","geometry":{"type":"Point","coordinates":[-0.26067,51.39931]},"properties":{"name":"New Malden Library","address":"","postcode":"","website":""}},{"type":"Feature","geometry":{"type":"Point","coordinates":[-0.47441,51.31126]},"properties":{"name":"Wisley Garden Library","address":"Wisley Lane RHS","postcode":"GU23 6QB","website":""}},{"type":"Feature","geometry":{"type":"Point","coordinates":[-0.23913,51.39508]},"properties":{"name":"West Barnes Library","address":"","postcode":"","website":""}},{"type":"Feature","geometry":{"type":"Point","coordinates":[-0.09239,51.50178]},"properties":{"name":"John Harvard Library","address":"","postcode":"","website":"https://www.southwark.gov.uk/libraries/find-a-library?chapter=9"}},{"type":"Feature","geometry":{"type":"Point","coordinates":[0.00807,51.48573]},"properties":{"name":"Greenwich Centre Library","address":"","postcode":"","website":"https://www.better.org.uk/library/london/greenwich/greenwich-centre-library"}},{"type":"Feature","geometry":{"type":"Point","coordinates":[-0.04661,51.64616]},"properties":{"name":"Library","address":"High Street 198-200","postcode":"EN3 4EZ","website":"https://mylife.enfield.gov.uk/directory/providerdetails/210993"}},{"type":"Feature","geometry":{"type":"Point","coordinates":[-0.12988,51.50968]},"properties":{"name":"Westminster Music Library","address":"","postcode":"","website":""}},{"type":"Feature","geometry":{"type":"Point","coordinates":[0.04948,51.59031]},"properties":{"name":"The Library @ Clayhall","address":"Claybury Broadway 1","postcode":"IG5 0LQ","website":""}},{"type":"Feature","geometry":{"type":"Point","coordinates":[-0.12931,51.49043]},"properties":{"name":"Stuart Hall Library","address":"","postcode":"","website":""}},{"type":"Feature","geometry":{"type":"Point","coordinates":[-0.33603,51.57957]},"properties":{"name":"Greenhill Library","address":"","postcode":"","website":""}},{"type":"Feature","geometry":{"type":"Point","coordinates":[-0.19178,51.45595]},"properties":{"name":"Wandsworth Town Library","address":"Courthouse Way 9","postcode":"SW18 4QG","website":"https://www.better.org.uk/library/london/wandsworth/wandsworth-town-library"}},{"type":"Feature","geometry":{"type":"Point","coordinates":[0.01221,51.42604]},"properties":{"name":"Downham Library","address":"Moorside Road 7-9","postcode":"","website":""}},{"type":"Feature","geometry":{"type":"Point","coordinates":[0.07994,51.44601]},"properties":{"name":"Avery Hill Campus Library","address":"","postcode":"","website":""}},{"type":"Feature","geometry":{"type":"Point","coordinates":[-0.22602,51.53382]},"properties":{"name":"Kensal Rise Library","address":"","postcode":"","website":""}},{"type":"Feature","geometry":{"type":"Point","coordinates":[-0.12959,51.52695]},"properties":{"name":"Bartlett Library","address":"Upper Woburn Place 14","postcode":"WC1H 0NN","website":"https://www.ucl.ac.uk/library/using-library/libraries-and-study-spaces/bartlett-library"}},{"type":"Feature","geometry":{"type":"Point","coordinates":[0.12301,51.49756]},"properties":{"name":"Thamesmead Library","address":"Cygnet Square 3","postcode":"SE2 9FA","website":""}},{"type":"Feature","geometry":{"type":"Point","coordinates":[-0.09747,51.49158]},"properties":{"name":"Southwark Heritage Centre and Walworth Library","address":"Walworth Road 145-147","postcode":"SE17 1RW","website":""}},{"type":"Feature","geometry":{"type":"Point","coordinates":[-0.14481,51.52138]},"properties":{"name":"RIBA Library","address":"","postcode":"","website":"https://www.architecture.com/contact-and-visit/riba-library"}},{"type":"Feature","geometry":{"type":"Point","coordinates":[-0.41588,51.6075]},"properties":{"name":"Northwood Library","address":"High Street","postcode":"HA6 1BL","website":""}},{"type":"Feature","geometry":{"type":"Point","coordinates":[-0.31144,51.55218]},"properties":{"name":"Barham Park Library","address":"Harrow Road 666","postcode":"","website":""}},{"type":"Feature","geometry":{"type":"Point","coordinates":[-0.01147,51.4781]},"properties":{"name":"West Greenwich Library","address":"Greenwich High Road","postcode":"SE10 8NN","website":"https://www.better.org.uk/library/london/greenwich/west-greenwich-library"}},{"type":"Feature","geometry":{"type":"Point","coordinates":[-0.29822,51.39276]},"properties":{"name":"Surbiton Library","address":"Ewell Road","postcode":"KT6 6AG","website":"https://libraries.kingston.gov.uk/digital-content/libraries/library-branches/surbiton"}},{"type":"Feature","geometry":{"type":"Point","coordinates":[-0.09594,51.53163]},"properties":{"name":"Society of Genealogists","address":"Wharf Road 40","postcode":"N1 7GS","website":""}},{"type":"Feature","geometry":{"type":"Point","coordinates":[-0.12426,51.49865]},"properties":{"name":"Peers' Library","address":"","postcode":"","website":""}},{"type":"Feature","geometry":{"type":"Point","coordinates":[-0.124,51.49998]},"properties":{"name":"Commons Libary","address":"","postcode":"","website":""}},{"type":"Feature","geometry":{"type":"Point","coordinates":[-0.14913,51.5099]},"properties":{"name":"Heythrop Library","address":"","postcode":"","website":"https://heythroplibrary.co.uk"}},{"type":"Feature","geometry":{"type":"Point","coordinates":[-0.08602,51.48774]},"properties":{"name":"Una Marson Library","address":"Thurlow Street 62","postcode":"SE17 2GN","website":""}},{"type":"Feature","geometry":{"type":"Point","coordinates":[-0.30766,51.63184]},"properties":{"name":"UCL Institute of Orthopaedics Library","address":"","postcode":"","website":""}},{"type":"Feature","geometry":{"type":"Point","coordinates":[-0.11494,51.50642]},"properties":{"name":"BFI Reuben Library","address":"Belvedere Road","postcode":"SE1 8XT","website":""}},{"type":"Feature","geometry":{"type":"Point","coordinates":[-0.11518,51.50653]},"properties":{"name":"BFI Mediatheque","address":"","postcode":"","website":""}},{"type":"Feature","geometry":{"type":"Point","coordinates":[-0.4739,51.53271]},"properties":{"name":"Brunel University Library","address":"","postcode":"","website":""}}]}