{"type":"FeatureCollection","meta":{"id":"waitrose","generated":"2026-04-05","count":122,"source":"OpenStreetMap via Overpass API","vintage":"OSM snapshot at generation date"},"features":[{"type":"Feature","geometry":{"type":"Point","coordinates":[-0.18726,51.51649]},"properties":{"name":"Waitrose","address":"Porchester Road 38","postcode":"W2 6ES"}},{"type":"Feature","geometry":{"type":"Point","coordinates":[-0.20392,51.65596]},"properties":{"name":"Waitrose","address":"","postcode":"EN5 5XY"}},{"type":"Feature","geometry":{"type":"Point","coordinates":[-0.09212,51.52229]},"properties":{"name":"Waitrose","address":"Cherry Tree Walk","postcode":"EC1Y 8NX"}},{"type":"Feature","geometry":{"type":"Point","coordinates":[-0.1926,51.55156]},"properties":{"name":"Little Waitrose","address":"","postcode":""}},{"type":"Feature","geometry":{"type":"Point","coordinates":[-0.46927,51.64097]},"properties":{"name":"Waitrose","address":"","postcode":""}},{"type":"Feature","geometry":{"type":"Point","coordinates":[-0.21912,51.50641]},"properties":{"name":"Waitrose","address":"","postcode":"W12 7GA"}},{"type":"Feature","geometry":{"type":"Point","coordinates":[-0.12393,51.5795]},"properties":{"name":"Waitrose","address":"The Broadway 35-39","postcode":"N8 8DU"}},{"type":"Feature","geometry":{"type":"Point","coordinates":[-0.17964,51.54642]},"properties":{"name":"Waitrose","address":"Finchley Road 199","postcode":"NW3 6NN"}},{"type":"Feature","geometry":{"type":"Point","coordinates":[-0.10273,51.52415]},"properties":{"name":"Waitrose","address":"St. John Street 174","postcode":"EC1V 4DE"}},{"type":"Feature","geometry":{"type":"Point","coordinates":[-0.21634,51.35872]},"properties":{"name":"Little Waitrose","address":"","postcode":""}},{"type":"Feature","geometry":{"type":"Point","coordinates":[-0.16779,51.46261]},"properties":{"name":"Waitrose","address":"St John's Rd","postcode":"SW11 1PW"}},{"type":"Feature","geometry":{"type":"Point","coordinates":[-0.17767,51.49227]},"properties":{"name":"Little Waitrose","address":"Old Brompton Road 103","postcode":"SW7 3LE"}},{"type":"Feature","geometry":{"type":"Point","coordinates":[-0.32896,51.44848]},"properties":{"name":"Waitrose & Partners","address":"London Road 50","postcode":"TW1 3RJ"}},{"type":"Feature","geometry":{"type":"Point","coordinates":[-0.222,51.6877]},"properties":{"name":"Waitrose","address":"","postcode":""}},{"type":"Feature","geometry":{"type":"Point","coordinates":[-0.30586,51.41116]},"properties":{"name":"Waitrose","address":"Wood Street","postcode":"KT1 1TE"}},{"type":"Feature","geometry":{"type":"Point","coordinates":[-0.11869,51.51743]},"properties":{"name":"Little Waitrose","address":"High Holborn 246","postcode":"WC1V 7EX"}},{"type":"Feature","geometry":{"type":"Point","coordinates":[-0.18403,51.51071]},"properties":{"name":"Little Waitrose","address":"","postcode":""}},{"type":"Feature","geometry":{"type":"Point","coordinates":[-0.08416,51.65171]},"properties":{"name":"Waitrose","address":"Palace Gardens 8-12","postcode":"EN2 6SN"}},{"type":"Feature","geometry":{"type":"Point","coordinates":[-0.01673,51.50463]},"properties":{"name":"Waitrose","address":"Canada Square 16-19","postcode":"E14 5EW"}},{"type":"Feature","geometry":{"type":"Point","coordinates":[-0.21943,51.48393]},"properties":{"name":"Little Waitrose","address":"","postcode":""}},{"type":"Feature","geometry":{"type":"Point","coordinates":[-0.1043,51.54694]},"properties":{"name":"Little Waitrose","address":"Highbury Corner 28-32","postcode":"N5 1RD"}},{"type":"Feature","geometry":{"type":"Point","coordinates":[-0.01566,51.48232]},"properties":{"name":"Waitrose","address":"Victoria Parade","postcode":"SE10 9DD"}},{"type":"Feature","geometry":{"type":"Point","coordinates":[-0.13716,51.4974]},"properties":{"name":"Little Waitrose","address":"Victoria Street 62","postcode":"SW1E 6QP"}},{"type":"Feature","geometry":{"type":"Point","coordinates":[-0.08668,51.51001]},"properties":{"name":"Little Waitrose","address":"King William Street 46","postcode":"EC4R 9AN"}},{"type":"Feature","geometry":{"type":"Point","coordinates":[-0.21166,51.45949]},"properties":{"name":"Little Waitrose","address":"Upper Richmond Road 77-83","postcode":"SW15 2TD"}},{"type":"Feature","geometry":{"type":"Point","coordinates":[-0.16497,51.49913]},"properties":{"name":"Little Waitrose","address":"Brompton Road 118-120","postcode":"SW3 1JE"}},{"type":"Feature","geometry":{"type":"Point","coordinates":[-0.20737,51.42093]},"properties":{"name":"Little Waitrose","address":"Wimbledon Hill Road 2","postcode":"SW19 7NS"}},{"type":"Feature","geometry":{"type":"Point","coordinates":[-0.20086,51.47414]},"properties":{"name":"Little Waitrose","address":"Parsons Green 8","postcode":""}},{"type":"Feature","geometry":{"type":"Point","coordinates":[-0.13512,51.48241]},"properties":{"name":"Waitrose","address":"New Union Square 1","postcode":"SW11 7DN"}},{"type":"Feature","geometry":{"type":"Point","coordinates":[-0.09037,51.51209]},"properties":{"name":"Little Waitrose","address":"Walbrook 23","postcode":"EC4N 8AF"}},{"type":"Feature","geometry":{"type":"Point","coordinates":[-0.12351,51.53609]},"properties":{"name":"Waitrose","address":"Wharf Road 1","postcode":"N1C 4BZ"}},{"type":"Feature","geometry":{"type":"Point","coordinates":[-0.14561,51.51569]},"properties":{"name":"Waitrose","address":"","postcode":"W1A 1EX"}},{"type":"Feature","geometry":{"type":"Point","coordinates":[-0.10571,51.50727]},"properties":{"name":"Little Waitrose","address":"Stamford Street 20","postcode":"SE1 9LS"}},{"type":"Feature","geometry":{"type":"Point","coordinates":[-0.32925,51.29472]},"properties":{"name":"Waitrose","address":"Church Street 14-22","postcode":"KT22 8DW"}},{"type":"Feature","geometry":{"type":"Point","coordinates":[-0.19492,51.60009]},"properties":{"name":"Little Waitrose","address":"Regent's Park Road 318-320","postcode":"N3 2LN"}},{"type":"Feature","geometry":{"type":"Point","coordinates":[-0.29098,51.51639]},"properties":{"name":"Little Waitrose","address":"","postcode":""}},{"type":"Feature","geometry":{"type":"Point","coordinates":[-0.09397,51.63533]},"properties":{"name":"Waitrose","address":"Green Lanes 889","postcode":"N21 2QP"}},{"type":"Feature","geometry":{"type":"Point","coordinates":[-0.23338,51.40918]},"properties":{"name":"Waitrose","address":"Coombe Lane 25","postcode":"SW20 0BW"}},{"type":"Feature","geometry":{"type":"Point","coordinates":[-0.22262,51.57735]},"properties":{"name":"Waitrose","address":"","postcode":""}},{"type":"Feature","geometry":{"type":"Point","coordinates":[-0.51354,51.28172]},"properties":{"name":"Little Waitrose","address":"Portsmouth Road","postcode":"GU23 7JY"}},{"type":"Feature","geometry":{"type":"Point","coordinates":[-0.19916,51.50884]},"properties":{"name":"Little Waitrose","address":"Notting Hill Gate 132-136","postcode":""}},{"type":"Feature","geometry":{"type":"Point","coordinates":[-0.32757,51.48936]},"properties":{"name":"Little Waitrose","address":"Grant Way","postcode":"TW7 5QD"}},{"type":"Feature","geometry":{"type":"Point","coordinates":[-0.20016,51.36147]},"properties":{"name":"Little Waitrose","address":"","postcode":""}},{"type":"Feature","geometry":{"type":"Point","coordinates":[-0.4916,51.37082]},"properties":{"name":"Waitrose","address":"Station Road","postcode":"KT15 2GL"}},{"type":"Feature","geometry":{"type":"Point","coordinates":[-0.14253,51.49797]},"properties":{"name":"Waitrose","address":"Bressenden Place","postcode":""}},{"type":"Feature","geometry":{"type":"Point","coordinates":[-0.14813,51.47831]},"properties":{"name":"Little Waitrose","address":"Queenstown Road 326","postcode":"SW11 8NE"}},{"type":"Feature","geometry":{"type":"Point","coordinates":[-0.20877,51.4724]},"properties":{"name":"Little Waitrose","address":"","postcode":""}},{"type":"Feature","geometry":{"type":"Point","coordinates":[-0.30184,51.46137]},"properties":{"name":"Waitrose","address":"Sheen Road 4-10","postcode":"TW9 1AE"}},{"type":"Feature","geometry":{"type":"Point","coordinates":[-0.26393,51.63125]},"properties":{"name":"Waitrose","address":"","postcode":""}},{"type":"Feature","geometry":{"type":"Point","coordinates":[0.29793,51.60722]},"properties":{"name":"Little Waitrose","address":"","postcode":""}},{"type":"Feature","geometry":{"type":"Point","coordinates":[-0.25368,51.64299]},"properties":{"name":"Little Waitrose","address":"","postcode":""}},{"type":"Feature","geometry":{"type":"Point","coordinates":[-0.45671,51.37369]},"properties":{"name":"Waitrose","address":"High Street 62-66","postcode":"KT13 8BL"}},{"type":"Feature","geometry":{"type":"Point","coordinates":[-0.18811,51.46135]},"properties":{"name":"Little Waitrose","address":"","postcode":""}},{"type":"Feature","geometry":{"type":"Point","coordinates":[0.10655,51.69576]},"properties":{"name":"Little Waitrose","address":"","postcode":""}},{"type":"Feature","geometry":{"type":"Point","coordinates":[-0.1758,51.63142]},"properties":{"name":"Waitrose","address":"High Road 1305","postcode":"N20 9HX"}},{"type":"Feature","geometry":{"type":"Point","coordinates":[-0.20175,51.42507]},"properties":{"name":"Waitrose","address":"Alexandra Road","postcode":"SW19 7JY"}},{"type":"Feature","geometry":{"type":"Point","coordinates":[0.01932,51.39899]},"properties":{"name":"Waitrose","address":"Masons Hill 45","postcode":"BR2 9HD"}},{"type":"Feature","geometry":{"type":"Point","coordinates":[-0.42301,51.57132]},"properties":{"name":"Waitrose","address":"Kingsend 9","postcode":"HA4 7DS"}},{"type":"Feature","geometry":{"type":"Point","coordinates":[0.02343,51.59545]},"properties":{"name":"Waitrose","address":"High Road 92-96","postcode":"E18 2NA"}},{"type":"Feature","geometry":{"type":"Point","coordinates":[-0.30518,51.39385]},"properties":{"name":"Waitrose","address":"Claremont Road 15a","postcode":"KT6 4QR"}},{"type":"Feature","geometry":{"type":"Point","coordinates":[-0.24329,51.37813]},"properties":{"name":"Waitrose","address":"","postcode":""}},{"type":"Feature","geometry":{"type":"Point","coordinates":[-0.06732,51.50686]},"properties":{"name":"Waitrose","address":"Thomas More Street 41","postcode":"E1W 1YY"}},{"type":"Feature","geometry":{"type":"Point","coordinates":[-0.19878,51.32309]},"properties":{"name":"Waitrose","address":"High Street 102-104","postcode":"SM7 2NB"}},{"type":"Feature","geometry":{"type":"Point","coordinates":[-0.25606,51.40273]},"properties":{"name":"Waitrose","address":"High Street 24-28","postcode":"KT3 4HE"}},{"type":"Feature","geometry":{"type":"Point","coordinates":[0.30019,51.39667]},"properties":{"name":"Waitrose","address":"Station Road 63","postcode":"DA3 7QA"}},{"type":"Feature","geometry":{"type":"Point","coordinates":[-0.35218,51.56763]},"properties":{"name":"Waitrose","address":"Northolt Road 140","postcode":"HA2 0EG"}},{"type":"Feature","geometry":{"type":"Point","coordinates":[-0.11615,51.55617]},"properties":{"name":"Waitrose","address":"Holloway Road 366","postcode":"N7 6PA"}},{"type":"Feature","geometry":{"type":"Point","coordinates":[-0.10849,51.55033]},"properties":{"name":"Little Waitrose","address":"","postcode":""}},{"type":"Feature","geometry":{"type":"Point","coordinates":[-0.12415,51.5249]},"properties":{"name":"Waitrose","address":"Brunswick Square 23-29","postcode":"WC1N 1AF"}},{"type":"Feature","geometry":{"type":"Point","coordinates":[-0.02635,51.41158]},"properties":{"name":"Waitrose","address":"Southend Road","postcode":"BR3 1SD"}},{"type":"Feature","geometry":{"type":"Point","coordinates":[-0.50567,51.33718]},"properties":{"name":"Waitrose","address":"","postcode":""}},{"type":"Feature","geometry":{"type":"Point","coordinates":[0.09009,51.35512]},"properties":{"name":"Waitrose","address":"High Street 11","postcode":"BR6 6BG"}},{"type":"Feature","geometry":{"type":"Point","coordinates":[-0.1517,51.44567]},"properties":{"name":"Waitrose","address":"Balham High Road 134-152","postcode":"SW12 9BN"}},{"type":"Feature","geometry":{"type":"Point","coordinates":[-0.16703,51.48864]},"properties":{"name":"Waitrose","address":"King's Road 196-198","postcode":"SW3 5XP"}},{"type":"Feature","geometry":{"type":"Point","coordinates":[0.03667,51.30903]},"properties":{"name":"Waitrose","address":"Main Road 168","postcode":"TN16 3BB"}},{"type":"Feature","geometry":{"type":"Point","coordinates":[-0.26879,51.46473]},"properties":{"name":"Waitrose","address":"Upper Richmond Road West 292","postcode":"SW14 7JG"}},{"type":"Feature","geometry":{"type":"Point","coordinates":[-0.10743,51.53383]},"properties":{"name":"Waitrose","address":"Liverpool Road 21","postcode":"N1 0RW"}},{"type":"Feature","geometry":{"type":"Point","coordinates":[-0.20007,51.58377]},"properties":{"name":"Waitrose","address":"Temple Fortune Parade 32-39","postcode":"NW11 0QS"}},{"type":"Feature","geometry":{"type":"Point","coordinates":[-0.1994,51.4802]},"properties":{"name":"Waitrose","address":"North End Road 402","postcode":"SW6 1LX"}},{"type":"Feature","geometry":{"type":"Point","coordinates":[-0.20905,51.60724]},"properties":{"name":"Waitrose","address":"","postcode":""}},{"type":"Feature","geometry":{"type":"Point","coordinates":[-0.39482,51.68103]},"properties":{"name":"Little Waitrose","address":"St Albans Road","postcode":"WD24 7RU"}},{"type":"Feature","geometry":{"type":"Point","coordinates":[-0.41238,51.32986]},"properties":{"name":"Waitrose","address":"Between Streets 16","postcode":"KT11 1AF"}},{"type":"Feature","geometry":{"type":"Point","coordinates":[-0.16578,51.51757]},"properties":{"name":"Waitrose","address":"Edgware Road 168-176","postcode":"W2 2DS"}},{"type":"Feature","geometry":{"type":"Point","coordinates":[-0.07479,51.33193]},"properties":{"name":"Waitrose","address":"Limpsfield Road 87","postcode":"CR2 9LE"}},{"type":"Feature","geometry":{"type":"Point","coordinates":[-0.26308,51.49277]},"properties":{"name":"Waitrose","address":"Chiswick High Road 356-362","postcode":"W4 5TA"}},{"type":"Feature","geometry":{"type":"Point","coordinates":[-0.13873,51.46194]},"properties":{"name":"Little Waitrose","address":"The Pavement 5","postcode":"SW4 0HY"}},{"type":"Feature","geometry":{"type":"Point","coordinates":[-0.33957,51.60535]},"properties":{"name":"Waitrose","address":"High Road 350","postcode":"HA3 6HF"}},{"type":"Feature","geometry":{"type":"Point","coordinates":[-0.14243,51.59177]},"properties":{"name":"Waitrose","address":"Muswell Hill Broadway 390-392","postcode":"N10 1DJ"}},{"type":"Feature","geometry":{"type":"Point","coordinates":[-0.35024,51.56727]},"properties":{"name":"Waitrose","address":"Northolt Road","postcode":"HA2 0EG"}},{"type":"Feature","geometry":{"type":"Point","coordinates":[-0.09247,51.65341]},"properties":{"name":"Waitrose","address":"Windmill Hill 38-40","postcode":"EN2 7AS"}},{"type":"Feature","geometry":{"type":"Point","coordinates":[0.04509,51.62547]},"properties":{"name":"Waitrose","address":"","postcode":"IG9 5EP"}},{"type":"Feature","geometry":{"type":"Point","coordinates":[-0.15684,51.499]},"properties":{"name":"Waitrose","address":"Motcomb Street 27","postcode":"SW1X 8GG"}},{"type":"Feature","geometry":{"type":"Point","coordinates":[-0.07812,51.28242]},"properties":{"name":"Waitrose","address":"Station Avenue 2-10","postcode":"CR3 6LB"}},{"type":"Feature","geometry":{"type":"Point","coordinates":[-0.367,51.36789]},"properties":{"name":"Waitrose","address":"High Street 105","postcode":"KT10 9QE"}},{"type":"Feature","geometry":{"type":"Point","coordinates":[-0.33857,51.37345]},"properties":{"name":"Little Waitrose","address":"","postcode":""}},{"type":"Feature","geometry":{"type":"Point","coordinates":[0.25309,51.55623]},"properties":{"name":"Waitrose","address":"St Mary's Lane 218","postcode":"RM14 3BT"}},{"type":"Feature","geometry":{"type":"Point","coordinates":[-0.1238,51.48535]},"properties":{"name":"Little Waitrose","address":"Bondway 3","postcode":"SW8 1SJ"}},{"type":"Feature","geometry":{"type":"Point","coordinates":[-0.3214,51.51301]},"properties":{"name":"Waitrose","address":"Alexandria Road 2","postcode":"W13 0NL"}},{"type":"Feature","geometry":{"type":"Point","coordinates":[-0.39852,51.36535]},"properties":{"name":"Waitrose","address":"Molesey Road","postcode":"KT12 4HL"}},{"type":"Feature","geometry":{"type":"Point","coordinates":[-0.13718,51.32198]},"properties":{"name":"Waitrose","address":"Brighton Road 110-112","postcode":"CR5 2NB"}},{"type":"Feature","geometry":{"type":"Point","coordinates":[-0.1395,51.49249]},"properties":{"name":"Little Waitrose","address":"Warwick Way 19-21","postcode":"SW1V 1QT"}},{"type":"Feature","geometry":{"type":"Point","coordinates":[-0.37366,51.41559]},"properties":{"name":"Waitrose","address":"Oldfield Road 72","postcode":"TW12 2HQ"}},{"type":"Feature","geometry":{"type":"Point","coordinates":[-0.20526,51.48866]},"properties":{"name":"Little Waitrose","address":"North End Road 116 - 128","postcode":"W14 9PP"}},{"type":"Feature","geometry":{"type":"Point","coordinates":[-0.12381,51.53189]},"properties":{"name":"Little Waitrose","address":"","postcode":""}},{"type":"Feature","geometry":{"type":"Point","coordinates":[0.10564,51.42523]},"properties":{"name":"Little Waitrose","address":"High Street 1","postcode":"DA14 6EN"}},{"type":"Feature","geometry":{"type":"Point","coordinates":[-0.21992,51.30642]},"properties":{"name":"Little Waitrose","address":"Brighton Road","postcode":"KT20 6AA"}},{"type":"Feature","geometry":{"type":"Point","coordinates":[-0.42432,51.61117]},"properties":{"name":"Waitrose","address":"Green Lane 52","postcode":"HA6 2XW"}},{"type":"Feature","geometry":{"type":"Point","coordinates":[-0.19797,51.49879]},"properties":{"name":"Waitrose","address":"Kensington High Street 243","postcode":""}},{"type":"Feature","geometry":{"type":"Point","coordinates":[-0.07739,51.30426]},"properties":{"name":"Little Waitrose","address":"","postcode":""}},{"type":"Feature","geometry":{"type":"Point","coordinates":[-0.18391,51.49459]},"properties":{"name":"Waitrose","address":"Gloucester Road 128","postcode":""}},{"type":"Feature","geometry":{"type":"Point","coordinates":[-0.14548,51.59537]},"properties":{"name":"Little Waitrose","address":"Colney Hatch Lane 11","postcode":""}},{"type":"Feature","geometry":{"type":"Point","coordinates":[0.11633,51.44774]},"properties":{"name":"Little Waitrose","address":"","postcode":""}},{"type":"Feature","geometry":{"type":"Point","coordinates":[-0.50038,51.58133]},"properties":{"name":"Shell Little Waitrose","address":"North Orbital Road","postcode":"UB9 5EY"}},{"type":"Feature","geometry":{"type":"Point","coordinates":[-0.2381,51.44943]},"properties":{"name":"Little Waitrose","address":"Roehampton Lane 237-239","postcode":"SW15 4LB"}},{"type":"Feature","geometry":{"type":"Point","coordinates":[-0.2167,51.46404]},"properties":{"name":"Waitrose","address":"Putney High Street","postcode":"SW15 1TW"}},{"type":"Feature","geometry":{"type":"Point","coordinates":[0.07473,51.38777]},"properties":{"name":"Little Waitrose","address":"Queensway 52","postcode":"BR5 1EA"}},{"type":"Feature","geometry":{"type":"Point","coordinates":[-0.1938,51.45424]},"properties":{"name":"Waitrose","address":"66-67","postcode":"SW18 4TG"}},{"type":"Feature","geometry":{"type":"Point","coordinates":[-0.28819,51.41357]},"properties":{"name":"Little Waitrose","address":"London Road","postcode":"KT2 6PQ"}},{"type":"Feature","geometry":{"type":"Point","coordinates":[-0.30161,51.41948]},"properties":{"name":"Little Waitrose","address":"","postcode":""}},{"type":"Feature","geometry":{"type":"Point","coordinates":[-0.46938,51.42793]},"properties":{"name":"Little Waitrose","address":"Fordbridge Road 102","postcode":"TW15 3RX"}},{"type":"Feature","geometry":{"type":"Point","coordinates":[-0.00949,51.54365]},"properties":{"name":"Waitrose","address":"Montfichet Road","postcode":"E20 1EH"}},{"type":"Feature","geometry":{"type":"Point","coordinates":[0.33168,51.3053]},"properties":{"name":"Little Waitrose","address":"London Road","postcode":"TN15 7RR"}}]}