{"type":"FeatureCollection","meta":{"id":"yoga","generated":"2026-04-05","count":132,"source":"OpenStreetMap via Overpass API","vintage":"OSM snapshot at generation date"},"features":[{"type":"Feature","geometry":{"type":"Point","coordinates":[-0.19157,51.48991]},"properties":{"name":"London Lifestyle Academy","address":"Earls Court Square","postcode":"SW5 9DJ","website":"http://derosekensington.co.uk/","phone":"+44 20 7373 7070"}},{"type":"Feature","geometry":{"type":"Point","coordinates":[-0.15154,51.46635]},"properties":{"name":"Union Station Yoga","address":"Lavender Hill 18","postcode":"","website":"","phone":""}},{"type":"Feature","geometry":{"type":"Point","coordinates":[-0.118,51.56327]},"properties":{"name":"Hello Yoga Studio & Fair-Well Shop","address":"","postcode":"","website":"https://www.sayhellostudio.co.uk","phone":""}},{"type":"Feature","geometry":{"type":"Point","coordinates":[-0.08821,51.52866]},"properties":{"name":"Bikram Yoga","address":"","postcode":"","website":"http://hotbikramyoga.co.uk/","phone":""}},{"type":"Feature","geometry":{"type":"Point","coordinates":[-0.15852,51.52386]},"properties":{"name":"Total Chi Yoga","address":"Baker Street 243","postcode":"","website":"https://www.totalchi.com/","phone":"+44 20 7224 2929"}},{"type":"Feature","geometry":{"type":"Point","coordinates":[-0.1735,51.46149]},"properties":{"name":"Sadhana Yoga & Wellbeing","address":"","postcode":"","website":"","phone":""}},{"type":"Feature","geometry":{"type":"Point","coordinates":[-0.42199,51.38685]},"properties":{"name":"Body & Brain","address":"Bridge Street 37","postcode":"KT12 1AF","website":"https://www.bodynbrain.co.uk/","phone":"+44 1932 259759"}},{"type":"Feature","geometry":{"type":"Point","coordinates":[-0.10165,51.53662]},"properties":{"name":"MoreYoga","address":"Essex Road 21","postcode":"N1 2SA","website":"https://www.moreyoga.co.uk/yoga-london/angel-studio/","phone":""}},{"type":"Feature","geometry":{"type":"Point","coordinates":[-0.30423,51.46064]},"properties":{"name":"Richmond Yoga","address":"","postcode":"","website":"https://www.hotyoga.co.uk/","phone":""}},{"type":"Feature","geometry":{"type":"Point","coordinates":[-0.18019,51.45941]},"properties":{"name":"Instate Fitness","address":"East Hill 5","postcode":"","website":"","phone":""}},{"type":"Feature","geometry":{"type":"Point","coordinates":[-0.0977,51.6423]},"properties":{"name":"North London Yoga Studio","address":"","postcode":"","website":"","phone":""}},{"type":"Feature","geometry":{"type":"Point","coordinates":[-0.14704,51.53972]},"properties":{"name":"Triyoga","address":"Jamestown Road 57","postcode":"NW1 7DB","website":"","phone":""}},{"type":"Feature","geometry":{"type":"Point","coordinates":[-0.179,51.69166]},"properties":{"name":"Zero Gravity Pilates","address":"Barnet Road 23-25","postcode":"EN6 2QX","website":"","phone":""}},{"type":"Feature","geometry":{"type":"Point","coordinates":[-0.10593,51.44025]},"properties":{"name":"More Yoga","address":"Norwood Road 357","postcode":"SE27 9BQ","website":"https://moreyoga.co.uk","phone":"+44 808 175 0238"}},{"type":"Feature","geometry":{"type":"Point","coordinates":[-0.08806,51.51747]},"properties":{"name":"Light Centre Moorgate","address":"London Wall 114","postcode":"EC2M 5QA","website":"http://www.lightcentremoorgate.co.uk","phone":""}},{"type":"Feature","geometry":{"type":"Point","coordinates":[-0.1385,51.51255]},"properties":{"name":"Triyoga","address":"Kingly Court","postcode":"","website":"https://triyoga.co.uk/","phone":""}},{"type":"Feature","geometry":{"type":"Point","coordinates":[-0.05453,51.54741]},"properties":{"name":"Paper Dress Yoga","address":"Mare Street 352","postcode":"E8 1HR","website":"","phone":""}},{"type":"Feature","geometry":{"type":"Point","coordinates":[-0.06715,51.46992]},"properties":{"name":"Yogarise","address":"Rye Lane 133","postcode":"SE15 4ST","website":"","phone":""}},{"type":"Feature","geometry":{"type":"Point","coordinates":[-0.1178,51.54866]},"properties":{"name":"More Yoga","address":"","postcode":"","website":"","phone":""}},{"type":"Feature","geometry":{"type":"Point","coordinates":[-0.48548,51.37241]},"properties":{"name":"Akram Hot Yooga","address":"Station Road 157","postcode":"KT15 2AT","website":"https://www.akramyoga.co.uk","phone":""}},{"type":"Feature","geometry":{"type":"Point","coordinates":[-0.16512,51.52265]},"properties":{"name":"Indaba Yoga","address":"Hayes Place 18","postcode":"","website":"","phone":""}},{"type":"Feature","geometry":{"type":"Point","coordinates":[-0.07855,51.51403]},"properties":{"name":"Fly","address":"","postcode":"","website":"","phone":""}},{"type":"Feature","geometry":{"type":"Point","coordinates":[-0.20111,51.36404]},"properties":{"name":"The Saraswati Yoga Studio","address":"Robin Hood Lane 122","postcode":"SM1 2SE","website":"","phone":""}},{"type":"Feature","geometry":{"type":"Point","coordinates":[-0.42085,51.419]},"properties":{"name":"The Gym","address":"Staines Road West","postcode":"TW16 7BB","website":"https://www.thegymgroup.com/find-a-gym/south-london-gyms/sunbury/","phone":""}},{"type":"Feature","geometry":{"type":"Point","coordinates":[-0.30009,51.46449]},"properties":{"name":"Yogahaven","address":"Kew Road","postcode":"TW9 2NA","website":"","phone":""}},{"type":"Feature","geometry":{"type":"Point","coordinates":[-0.03825,51.4907]},"properties":{"name":"More yoga","address":"","postcode":"","website":"","phone":""}},{"type":"Feature","geometry":{"type":"Point","coordinates":[-0.26646,51.46717]},"properties":{"name":"The Garage Studio","address":"Sheen Lane 55","postcode":"SW14 8AB","website":"","phone":""}},{"type":"Feature","geometry":{"type":"Point","coordinates":[-0.00379,51.54875]},"properties":{"name":"More Yoga","address":"Liberty Bridge Road 47","postcode":"E15 1FT","website":"","phone":""}},{"type":"Feature","geometry":{"type":"Point","coordinates":[-0.17724,51.61352]},"properties":{"name":"More Yoga","address":"","postcode":"","website":"https://www.moreyoga.co.uk/north-finchley","phone":""}},{"type":"Feature","geometry":{"type":"Point","coordinates":[-0.07251,51.52397]},"properties":{"name":"Triyoga","address":"","postcode":"","website":"","phone":""}},{"type":"Feature","geometry":{"type":"Point","coordinates":[-0.193,51.5117]},"properties":{"name":"Heartcore","address":"Ossington Street 57","postcode":"","website":"https://www.heartcore.co.uk/studios?studio=studio-2","phone":"+44 20 7305 7760"}},{"type":"Feature","geometry":{"type":"Point","coordinates":[0.05556,51.64824]},"properties":{"name":"Bikram Yoga Essex","address":"","postcode":"","website":"","phone":""}},{"type":"Feature","geometry":{"type":"Point","coordinates":[-0.30779,51.51391]},"properties":{"name":"Triyoga","address":"","postcode":"","website":"","phone":""}},{"type":"Feature","geometry":{"type":"Point","coordinates":[-0.14171,51.54489]},"properties":{"name":"Kentish Town Studio","address":"","postcode":"","website":"kentishtownstudio.com","phone":""}},{"type":"Feature","geometry":{"type":"Point","coordinates":[-0.08829,51.47245]},"properties":{"name":"Zen Yoga","address":"Camberwell Grove 24A","postcode":"SE5 8RE","website":"http://www.zenyoga.org.uk/","phone":"+44 1698 542677"}},{"type":"Feature","geometry":{"type":"Point","coordinates":[-0.04762,51.54403]},"properties":{"name":"The Refinery","address":"Collent Street 14","postcode":"E9 6SG","website":"https://therefinerye9.com/","phone":"+44 20 7148 5990"}},{"type":"Feature","geometry":{"type":"Point","coordinates":[-0.17661,51.48422]},"properties":{"name":"Triyoga","address":"King's Road 372","postcode":"","website":"https://triyoga.co.uk/","phone":"+44 20 3362 3366"}},{"type":"Feature","geometry":{"type":"Point","coordinates":[-0.1579,51.4922]},"properties":{"name":"Vita Boutique Fitness","address":"Sloane Square 31","postcode":"SW1W 8AQ","website":"https://www.vitaboutiquefitness.com","phone":"+44 20 7730 4814"}},{"type":"Feature","geometry":{"type":"Point","coordinates":[-0.0802,51.55513]},"properties":{"name":"Yoga Home","address":"Allen Road 14","postcode":"N16 8SD","website":"https://yogahome.com/","phone":""}},{"type":"Feature","geometry":{"type":"Point","coordinates":[-0.1698,51.42684]},"properties":{"name":"Yoga Studio","address":"","postcode":"","website":"","phone":""}},{"type":"Feature","geometry":{"type":"Point","coordinates":[-0.16357,51.4236]},"properties":{"name":"Ivengar Yoga Studio","address":"","postcode":"","website":"","phone":""}},{"type":"Feature","geometry":{"type":"Point","coordinates":[-0.21591,51.50868]},"properties":{"name":"Equilibrium","address":"St. Anns Road 27","postcode":"","website":"","phone":""}},{"type":"Feature","geometry":{"type":"Point","coordinates":[-0.31683,51.50319]},"properties":{"name":"The Lounge by Yoga Whites","address":"Northfield Avenue 121","postcode":"W13 9QR","website":"","phone":""}},{"type":"Feature","geometry":{"type":"Point","coordinates":[-0.15708,51.43723]},"properties":{"name":"Revive","address":"","postcode":"","website":"","phone":""}},{"type":"Feature","geometry":{"type":"Point","coordinates":[-0.09836,51.5582]},"properties":{"name":"LIM","address":"","postcode":"","website":"","phone":""}},{"type":"Feature","geometry":{"type":"Point","coordinates":[-0.09582,51.49372]},"properties":{"name":"More Yoga","address":"","postcode":"","website":"","phone":""}},{"type":"Feature","geometry":{"type":"Point","coordinates":[-0.0082,51.50855]},"properties":{"name":"More Yoga","address":"Arniston Way 10","postcode":"E14 0RE","website":"https://www.moreyoga.co.uk/","phone":""}},{"type":"Feature","geometry":{"type":"Point","coordinates":[-0.22758,51.4978]},"properties":{"name":"Body & Brain","address":"Hammersmith Grove 101","postcode":"","website":"https://www.bodynbrain.co.uk/hammersmith","phone":"+44 20 8222 8542"}},{"type":"Feature","geometry":{"type":"Point","coordinates":[-0.05749,51.54217]},"properties":{"name":"Hotpod Yoga","address":"Mentmore Terrace 406","postcode":"E8 3PH","website":"https://hotpodyoga.com/studios/hackney/","phone":""}},{"type":"Feature","geometry":{"type":"Point","coordinates":[0.00786,51.46635]},"properties":{"name":"Blackheath Yoga","address":"Tranquil Vale 35","postcode":"SE3 0BU","website":"https://www.blackheathyoga.co.uk/","phone":"+44 20 3920 7108"}},{"type":"Feature","geometry":{"type":"Point","coordinates":[-0.09722,51.4941]},"properties":{"name":"Tempo 301","address":"","postcode":"","website":"","phone":""}},{"type":"Feature","geometry":{"type":"Point","coordinates":[0.006,51.51269]},"properties":{"name":"Hum Yoga","address":"Lyell Street","postcode":"E14 0SZ","website":"https://www.hum.yoga/","phone":""}},{"type":"Feature","geometry":{"type":"Point","coordinates":[-0.4113,51.3285]},"properties":{"name":"Cobham Yoga","address":"High Street Rear of 10","postcode":"KT11 3DY","website":"https://cobhamyoga.com","phone":"+44 1932 867600"}},{"type":"Feature","geometry":{"type":"Point","coordinates":[-0.23501,51.49317]},"properties":{"name":"Yoga Studio","address":"","postcode":"","website":"","phone":""}},{"type":"Feature","geometry":{"type":"Point","coordinates":[-0.13813,51.55633]},"properties":{"name":"Down To Earth","address":"Brecknock Road 225","postcode":"N19 5AA","website":"https://downtoearthlondon.co.uk/tufnell-park/","phone":""}},{"type":"Feature","geometry":{"type":"Point","coordinates":[-0.14104,51.59096]},"properties":{"name":"The Good Rooms","address":"","postcode":"","website":"https://thegoodrooms.co.uk","phone":""}},{"type":"Feature","geometry":{"type":"Point","coordinates":[-0.0486,51.49899]},"properties":{"name":"Canada Water Studios","address":"","postcode":"","website":"https://www.canadawaterstudios.com/","phone":""}},{"type":"Feature","geometry":{"type":"Point","coordinates":[0.06384,51.4932]},"properties":{"name":"More Yoga","address":"Hare Street 44","postcode":"SE18 6LZ","website":"https://www.moreyoga.co.uk/studios/woolwich/","phone":""}},{"type":"Feature","geometry":{"type":"Point","coordinates":[-0.02391,51.4737]},"properties":{"name":"Kindred Yoga","address":"","postcode":"","website":"https://www.kindredyogalife.com/","phone":""}},{"type":"Feature","geometry":{"type":"Point","coordinates":[-0.3097,51.45568]},"properties":{"name":"Studio 17","address":"Richmond Road","postcode":"TW1 2DY","website":"","phone":""}},{"type":"Feature","geometry":{"type":"Point","coordinates":[-0.08717,51.55884]},"properties":{"name":"Mudra Yoga","address":"","postcode":"","website":"https://www.mudrayogalondon.com/","phone":""}},{"type":"Feature","geometry":{"type":"Point","coordinates":[-0.42105,51.29208]},"properties":{"name":"Ellie Yoki","address":"Forest Road 2","postcode":"KT24 5HE","website":"https://ellieyoki.co.uk/","phone":""}},{"type":"Feature","geometry":{"type":"Point","coordinates":[0.00194,51.48443]},"properties":{"name":"One One One Pilates","address":"Trafalgar Road 115a","postcode":"SE10 9TX","website":"https://greenwich.111pilates.com/","phone":"+44 20 8318 5221"}},{"type":"Feature","geometry":{"type":"Point","coordinates":[-0.04083,51.5896]},"properties":{"name":"Yonder The Studio","address":"Hookers Road 4-6","postcode":"E17 6DP","website":"https://www.thisisyonder.com/thestudio","phone":"+44 20 3746 3869"}},{"type":"Feature","geometry":{"type":"Point","coordinates":[-0.0616,51.53577]},"properties":{"name":"Waking Dreams","address":"Ada Street","postcode":"","website":"https://www.wakingdreams.co/","phone":""}},{"type":"Feature","geometry":{"type":"Point","coordinates":[-0.02029,51.48034]},"properties":{"name":"More Yoga","address":"","postcode":"","website":"https://www.moreyoga.co.uk/","phone":""}},{"type":"Feature","geometry":{"type":"Point","coordinates":[-0.01739,51.45002]},"properties":{"name":"Forma","address":"Rushey Green 20","postcode":"","website":"","phone":""}},{"type":"Feature","geometry":{"type":"Point","coordinates":[-0.09802,51.49468]},"properties":{"name":"Gymbox Elephant and Castle","address":"","postcode":"","website":"https://www.gymbox.com/gyms/elephant-and-castle","phone":""}},{"type":"Feature","geometry":{"type":"Point","coordinates":[-0.08648,51.55932]},"properties":{"name":"Hackey Aerial Yoga","address":"","postcode":"","website":"https://www.hackneyaerialyoga.co.uk/","phone":""}},{"type":"Feature","geometry":{"type":"Point","coordinates":[0.02027,51.55418]},"properties":{"name":"E7 Movement","address":"Station Road 368","postcode":"E7 0AB","website":"https://www.e7movement.com/","phone":""}},{"type":"Feature","geometry":{"type":"Point","coordinates":[-0.14053,51.46357]},"properties":{"name":"YogaHaven","address":"","postcode":"","website":"","phone":""}},{"type":"Feature","geometry":{"type":"Point","coordinates":[-0.01053,51.56539]},"properties":{"name":"Pause","address":"High Road Leyton","postcode":"","website":"","phone":""}},{"type":"Feature","geometry":{"type":"Point","coordinates":[0.00047,51.54516]},"properties":{"name":"CorePower Yoga","address":"","postcode":"","website":"https://www.thepranaspace.com/","phone":""}},{"type":"Feature","geometry":{"type":"Point","coordinates":[-0.21807,51.46555]},"properties":{"name":"Sivananda Yoga Vedanta Centre","address":"Felsham Road","postcode":"","website":"https://sivanandalondon.org/","phone":""}},{"type":"Feature","geometry":{"type":"Point","coordinates":[-0.19276,51.41516]},"properties":{"name":"Hotpod Yoga South Wimbledon","address":"","postcode":"","website":"https://hotpodyoga.com/studios/south-wimbledon/","phone":""}},{"type":"Feature","geometry":{"type":"Point","coordinates":[-0.28051,51.55971]},"properties":{"name":"More Yoga","address":"","postcode":"","website":"https://www.moreyoga.co.uk/","phone":""}},{"type":"Feature","geometry":{"type":"Point","coordinates":[0.009,51.48579]},"properties":{"name":"MoreYoga","address":"12","postcode":"SE10 9GB","website":"https://www.moreyoga.co.uk/yoga-london/east-greenwich-studio/","phone":""}},{"type":"Feature","geometry":{"type":"Point","coordinates":[-0.14396,51.53871]},"properties":{"name":"Yoga Base","address":"","postcode":"","website":"","phone":""}},{"type":"Feature","geometry":{"type":"Point","coordinates":[-0.08965,51.5862]},"properties":{"name":"Bind Yoga Studio","address":"Vicarage Parade 3","postcode":"N15 3BL","website":"","phone":""}},{"type":"Feature","geometry":{"type":"Point","coordinates":[-0.09035,51.57286]},"properties":{"name":"Evoke","address":"Seven Sisters Road Unit A","postcode":"N4 1FS","website":"https://weareevoke.com","phone":"+44 7583 097292"}},{"type":"Feature","geometry":{"type":"Point","coordinates":[-0.11863,51.58247]},"properties":{"name":"Yoga Centre","address":"","postcode":"","website":"","phone":""}},{"type":"Feature","geometry":{"type":"Point","coordinates":[-0.11099,51.46229]},"properties":{"name":"Hot Yoga Brixton","address":"","postcode":"","website":"","phone":""}},{"type":"Feature","geometry":{"type":"Point","coordinates":[0.01158,51.51078]},"properties":{"name":"Shakti Space","address":"","postcode":"","website":"","phone":""}},{"type":"Feature","geometry":{"type":"Point","coordinates":[-0.04491,51.54772]},"properties":{"name":"Flo Yoga","address":"Homerton High Street 130","postcode":"","website":"https://www.floyogastudio.co.uk/homerton","phone":""}},{"type":"Feature","geometry":{"type":"Point","coordinates":[-0.28657,51.48314]},"properties":{"name":"Cat on the Mat","address":"","postcode":"","website":"https://www.catonthematkew.com/","phone":""}},{"type":"Feature","geometry":{"type":"Point","coordinates":[-0.15468,51.54321]},"properties":{"name":"Fierce Grace Hot Yoga","address":"","postcode":"","website":"","phone":""}},{"type":"Feature","geometry":{"type":"Point","coordinates":[0.01296,51.51106]},"properties":{"name":"Luv Yourself Space","address":"Hoy Street","postcode":"","website":"","phone":""}},{"type":"Feature","geometry":{"type":"Point","coordinates":[-0.32861,51.44837]},"properties":{"name":"Heartspace","address":"Katherine Street 46-48","postcode":"","website":"https://www.heartspaceyoga.co/","phone":""}},{"type":"Feature","geometry":{"type":"Point","coordinates":[-0.02814,51.47509]},"properties":{"name":"Iyengar Yoga Institute","address":"New Cross Road 470","postcode":"","website":"","phone":""}},{"type":"Feature","geometry":{"type":"Point","coordinates":[-0.12337,51.52769]},"properties":{"name":"Rebel Studio","address":"","postcode":"","website":"","phone":""}},{"type":"Feature","geometry":{"type":"Point","coordinates":[-0.02036,51.53453]},"properties":{"name":"Liquid Movement - Yoga, Sound, Motion","address":"Wick Lane 455","postcode":"E3 2TB","website":"https://liquidmvmt.com/","phone":""}},{"type":"Feature","geometry":{"type":"Point","coordinates":[-0.05578,51.54608]},"properties":{"name":"Doom Yoga","address":"","postcode":"","website":"https://www.doom.yoga/","phone":""}},{"type":"Feature","geometry":{"type":"Point","coordinates":[-0.02444,51.54009]},"properties":{"name":"Social Yoga","address":"","postcode":"","website":"https://www.socialyoga.co.uk/","phone":""}},{"type":"Feature","geometry":{"type":"Point","coordinates":[-0.1234,51.56836]},"properties":{"name":"Sol Studio","address":"Fairbridge Road 214","postcode":"","website":"","phone":""}},{"type":"Feature","geometry":{"type":"Point","coordinates":[-0.12193,51.56621]},"properties":{"name":"The Factory","address":"Hornsey Road 407","postcode":"","website":"","phone":""}},{"type":"Feature","geometry":{"type":"Point","coordinates":[-0.15559,51.52068]},"properties":{"name":"BXR","address":"Paddington Street 24","postcode":"W1U 5QY","website":"https://www.bxrlondon.com/","phone":"+44 20 3146 3436"}},{"type":"Feature","geometry":{"type":"Point","coordinates":[-0.1174,51.46712]},"properties":{"name":"Moreyoga","address":"Stockwell Rd 139","postcode":"SW9 9TN","website":"https://www.moreyoga.co.uk/yoga-studio-london/brixton","phone":"+44 808 175 0238"}},{"type":"Feature","geometry":{"type":"Point","coordinates":[-0.1578,51.43664]},"properties":{"name":"Moreyoga","address":"Balham High Road","postcode":"SW17 7BD","website":"https://www.moreyoga.co.uk","phone":"+44 808 175 0238"}},{"type":"Feature","geometry":{"type":"Point","coordinates":[-0.06186,51.59025]},"properties":{"name":"Hotpod Yoga Tottenham Hale","address":"","postcode":"","website":"https://hotpodyoga.com/studios/tottenham-hale/","phone":""}},{"type":"Feature","geometry":{"type":"Point","coordinates":[-0.02528,51.40893]},"properties":{"name":"Power Pilates","address":"High Street 58","postcode":"BR3 1AY","website":"https://powerpilatesuk.com","phone":"+44 757 024 7376"}},{"type":"Feature","geometry":{"type":"Point","coordinates":[-0.07329,51.45741]},"properties":{"name":"Casa Cora","address":"North Cross Road 33","postcode":"","website":"https://www.casacore.uk/","phone":""}},{"type":"Feature","geometry":{"type":"Point","coordinates":[-0.16796,51.55369]},"properties":{"name":"Barre Core","address":"Pond Street 7","postcode":"NW3 2PN","website":"","phone":"+44 20 7317 7105"}},{"type":"Feature","geometry":{"type":"Point","coordinates":[-0.20855,51.53993]},"properties":{"name":"Yoga In Daily Life","address":"Salusbury Road 133","postcode":"NW6 6RN","website":"https://www.yogaindailylife.org/","phone":"+44 20 7378 7163"}},{"type":"Feature","geometry":{"type":"Point","coordinates":[-0.09882,51.5248]},"properties":{"name":"CitySport","address":"Goswell Road 124","postcode":"EC1V 7DP","website":"https://www.citysport.org.uk/","phone":"+44 20 7040 5656"}},{"type":"Feature","geometry":{"type":"Point","coordinates":[0.00096,51.60683]},"properties":{"name":"Lotus Health And Fitness","address":"Hale End Road 479","postcode":"E4 9PT","website":"","phone":""}},{"type":"Feature","geometry":{"type":"Point","coordinates":[-0.16569,51.60592]},"properties":{"name":"Navagraha Sri Kathirgaama Yogi Yogishwara Yoga Dhandayuthapaani Swami Temple","address":"Legion Way","postcode":"N12 0QF","website":"https://www.omsharavanabhavamatham.org.uk/","phone":""}},{"type":"Feature","geometry":{"type":"Point","coordinates":[-0.03897,51.46376]},"properties":{"name":"Renaissance yoga & well being","address":"","postcode":"","website":"","phone":""}},{"type":"Feature","geometry":{"type":"Point","coordinates":[-0.0806,51.41756]},"properties":{"name":"The Yoga Edge","address":"Church Road 83","postcode":"","website":"","phone":""}},{"type":"Feature","geometry":{"type":"Point","coordinates":[-0.13502,51.5205]},"properties":{"name":"Good Vibes","address":"Tottenham Street 11","postcode":"W1T 2AQ","website":"","phone":""}},{"type":"Feature","geometry":{"type":"Point","coordinates":[-0.11124,51.45599]},"properties":{"name":"Yoga point","address":"Dalberg Road 122","postcode":"SW2 1AP","website":"https://yogapoint.co.uk/","phone":"+44 20 7326 1166"}},{"type":"Feature","geometry":{"type":"Point","coordinates":[-0.32823,51.44741]},"properties":{"name":"The Yoga Bar","address":"London Road 16a","postcode":"TW1 3RR","website":"","phone":""}},{"type":"Feature","geometry":{"type":"Point","coordinates":[-0.20968,51.53158]},"properties":{"name":"Yogarise Queen's Park","address":"Beethoven Street 27","postcode":"W10 4LG","website":"https://yogarise.london/queens-park-studio/","phone":"+44 20 7625 2645"}},{"type":"Feature","geometry":{"type":"Point","coordinates":[-0.20898,51.53239]},"properties":{"name":"Yoga Studio","address":"Kilburn Lane 260","postcode":"W10 4BA","website":"http://www.fiercegracewest.com/","phone":""}},{"type":"Feature","geometry":{"type":"Point","coordinates":[0.01017,51.5668]},"properties":{"name":"Fitness Hub East London","address":"High Road Leytonstone 771-773","postcode":"E11 4QS","website":"https://www.fitnesshubeastlondon.com/","phone":""}},{"type":"Feature","geometry":{"type":"Point","coordinates":[-0.07032,51.55293]},"properties":{"name":"Yoga On The Lane","address":"Shacklewell Lane 105","postcode":"","website":"","phone":""}},{"type":"Feature","geometry":{"type":"Point","coordinates":[0.01309,51.4493]},"properties":{"name":"Lite Up","address":"Burnt Ash Hill","postcode":"SE12 0AA","website":"","phone":""}},{"type":"Feature","geometry":{"type":"Point","coordinates":[-0.02488,51.54751]},"properties":{"name":"FS8","address":"East Bay Lane 31","postcode":"E15 2GW","website":"https://fs8stratford.fs8-studio.com/","phone":""}},{"type":"Feature","geometry":{"type":"Point","coordinates":[-0.02383,51.54666]},"properties":{"name":"Yoga Barre Pilates","address":"East Bay Lane","postcode":"E15 2GW","website":"","phone":""}},{"type":"Feature","geometry":{"type":"Point","coordinates":[-0.18966,51.53205]},"properties":{"name":"Iyengar Yoga Maida Vale","address":"Randolph Avenue 223a","postcode":"","website":"","phone":""}},{"type":"Feature","geometry":{"type":"Point","coordinates":[-0.20886,51.53226]},"properties":{"name":"Re:Connect Studio","address":"Kilburn Lane 260","postcode":"","website":"https://reconnectstudio.co.uk","phone":""}},{"type":"Feature","geometry":{"type":"Point","coordinates":[-0.35672,51.4258]},"properties":{"name":"Ember","address":"High Street 44","postcode":"","website":"https://www.emberyoga.co.uk","phone":"+44 20 8943 0270"}},{"type":"Feature","geometry":{"type":"Point","coordinates":[-0.20057,51.51248]},"properties":{"name":"Shanti Sadan","address":"Chepstow Villas 29","postcode":"W11 3DR","website":"https://shantisadan.org/","phone":""}},{"type":"Feature","geometry":{"type":"Point","coordinates":[-0.19581,51.50739]},"properties":{"name":"The Life Centre Notting Hill","address":"Edge Street 15","postcode":"W8 7PN","website":"https://thelifecentre.com/","phone":"+44 20 7221 4602"}},{"type":"Feature","geometry":{"type":"Point","coordinates":[-0.11527,51.58043]},"properties":{"name":"Yoga Junction","address":"Weston Park 93A","postcode":"N8 9PR","website":"https://www.yogajunction.co.uk","phone":""}},{"type":"Feature","geometry":{"type":"Point","coordinates":[-0.3395,51.45558]},"properties":{"name":"Virgin Active","address":"Whitton Road 196","postcode":"TW2 7BA","website":"","phone":""}},{"type":"Feature","geometry":{"type":"Point","coordinates":[0.01009,51.37757]},"properties":{"name":"Yoga Feeling","address":"Station Approach 6","postcode":"BR2 7EH","website":"https://yogafeeling.co.uk/","phone":"+44 7850 556822"}},{"type":"Feature","geometry":{"type":"Point","coordinates":[-0.26145,51.33352]},"properties":{"name":"Body & Brain","address":"","postcode":"KT17 4RJ","website":"","phone":""}},{"type":"Feature","geometry":{"type":"Point","coordinates":[-0.21864,51.46137]},"properties":{"name":"The House Of Yoga","address":"","postcode":"","website":"","phone":""}},{"type":"Feature","geometry":{"type":"Point","coordinates":[-0.21659,51.46351]},"properties":{"name":"Hot Pod Yoga","address":"Putney High Street","postcode":"SW15 1TW","website":"https://hotpodyoga.com/studios/putney/","phone":""}},{"type":"Feature","geometry":{"type":"Point","coordinates":[-0.19267,51.45832]},"properties":{"name":"MoreYoga","address":"Chivers Passage 7","postcode":"SW18 1UP","website":"https://www.moreyoga.co.uk/studios/wandsworth/","phone":"+44 808 175 0238"}},{"type":"Feature","geometry":{"type":"Point","coordinates":[0.11449,51.39343]},"properties":{"name":"Iyengar Yoga House","address":"High Street 70","postcode":"","website":"https://www.iyengaryogahouse.com","phone":""}},{"type":"Feature","geometry":{"type":"Point","coordinates":[-0.22395,51.5475]},"properties":{"name":"ZENW2","address":"Walm Lane","postcode":"NW2 5HT","website":"","phone":""}}]}